{
"type": "FeatureCollection",
"name": "geo_regions",
"crs": { "type": "name", "properties": { "name": "urn:ogc:def:crs:OGC:1.3:CRS84" } },
"xy_coordinate_resolution": 1e-05,
"features": [
{ "type": "Feature", "properties": { "region": "Centrale", "superficie_km2": 13121.6 }, "geometry": { "type": "Polygon", "coordinates": [ [ [ 1.231, 8.35377 ], [ 1.22998, 8.29589 ], [ 1.24008, 8.27505 ], [ 1.25149, 8.26554 ], [ 1.26018, 8.24583 ], [ 1.24702, 8.23902 ], [ 1.24288, 8.22041 ], [ 1.24627, 8.21048 ], [ 1.26275, 8.19352 ], [ 1.26372, 8.15791 ], [ 1.25645, 8.13248 ], [ 1.25548, 8.10363 ], [ 1.23042, 8.09557 ], [ 1.23042, 8.09194 ], [ 1.2507, 8.07832 ], [ 1.251, 8.05677 ], [ 1.23476, 8.03228 ], [ 1.21675, 8.03346 ], [ 1.20615, 8.02438 ], [ 1.19745, 8.01529 ], [ 1.19555, 8.00053 ], [ 1.18571, 7.98993 ], [ 1.16981, 7.98539 ], [ 1.1418, 7.96192 ], [ 1.07442, 7.94905 ], [ 1.05928, 7.94981 ], [ 1.02987, 7.96431 ], [ 0.98899, 7.97158 ], [ 0.96325, 7.98097 ], [ 0.91903, 7.96461 ], [ 0.88451, 7.95946 ], [ 0.86816, 8.02215 ], [ 0.8618, 8.03184 ], [ 0.83712, 8.03874 ], [ 0.83161, 7.96818 ], [ 0.82063, 7.9485 ], [ 0.77307, 7.93235 ], [ 0.71265, 7.95186 ], [ 0.70953, 7.96459 ], [ 0.70139, 7.96326 ], [ 0.69288, 7.95967 ], [ 0.68969, 7.95152 ], [ 0.70007, 7.92106 ], [ 0.68493, 7.90213 ], [ 0.66619, 7.89399 ], [ 0.61585, 7.89096 ], [ 0.61168, 7.90686 ], [ 0.61357, 7.92087 ], [ 0.60941, 7.92352 ], [ 0.59768, 7.97575 ], [ 0.60108, 7.99998 ], [ 0.60722, 8.00368 ], [ 0.59673, 8.03802 ], [ 0.59862, 8.04597 ], [ 0.59219, 8.07133 ], [ 0.59105, 8.10843 ], [ 0.59547, 8.13552 ], [ 0.60289, 8.14033 ], [ 0.60316, 8.16142 ], [ 0.59938, 8.17883 ], [ 0.59143, 8.18754 ], [ 0.58954, 8.19662 ], [ 0.59446, 8.20533 ], [ 0.62387, 8.22067 ], [ 0.6258, 8.23213 ], [ 0.64111, 8.25732 ], [ 0.67553, 8.26282 ], [ 0.68485, 8.27583 ], [ 0.69313, 8.28056 ], [ 0.72454, 8.28326 ], [ 0.73021, 8.30308 ], [ 0.7302, 8.33165 ], [ 0.71986, 8.34297 ], [ 0.72197, 8.35269 ], [ 0.71472, 8.35733 ], [ 0.71408, 8.38416 ], [ 0.70858, 8.38766 ], [ 0.70808, 8.39617 ], [ 0.69757, 8.39767 ], [ 0.68555, 8.40968 ], [ 0.66453, 8.4197 ], [ 0.65853, 8.43071 ], [ 0.65614, 8.46244 ], [ 0.64451, 8.49127 ], [ 0.6285, 8.50028 ], [ 0.62449, 8.50929 ], [ 0.61728, 8.51354 ], [ 0.57844, 8.52681 ], [ 0.55842, 8.55033 ], [ 0.5369, 8.55934 ], [ 0.5329, 8.57385 ], [ 0.51888, 8.56785 ], [ 0.51338, 8.56935 ], [ 0.49136, 8.59788 ], [ 0.47284, 8.59788 ], [ 0.4343, 8.66295 ], [ 0.38775, 8.72451 ], [ 0.37674, 8.74903 ], [ 0.38475, 8.75204 ], [ 0.38625, 8.75754 ], [ 0.39576, 8.76004 ], [ 0.38425, 8.77956 ], [ 0.39125, 8.79158 ], [ 0.41328, 8.79508 ], [ 0.41878, 8.79408 ], [ 0.42679, 8.78407 ], [ 0.4348, 8.78407 ], [ 0.4378, 8.79058 ], [ 0.4323, 8.79808 ], [ 0.45182, 8.80909 ], [ 0.46583, 8.79608 ], [ 0.47134, 8.79658 ], [ 0.49736, 8.8126 ], [ 0.50237, 8.84113 ], [ 0.53939, 8.85119 ], [ 0.54992, 8.87116 ], [ 0.55993, 8.87867 ], [ 0.58295, 8.87666 ], [ 0.5909, 8.87945 ], [ 0.59098, 8.89128 ], [ 0.57904, 8.8983 ], [ 0.57804, 8.90586 ], [ 0.58417, 8.91537 ], [ 0.61358, 8.92833 ], [ 0.63202, 8.94738 ], [ 0.63381, 8.9649 ], [ 0.64227, 8.98152 ], [ 0.66504, 8.9828 ], [ 0.68505, 9.0128 ], [ 0.70966, 9.01365 ], [ 0.72234, 9.04023 ], [ 0.73464, 9.05308 ], [ 0.74706, 9.04559 ], [ 0.75659, 9.0447 ], [ 0.77367, 9.05379 ], [ 0.78036, 9.05005 ], [ 0.78575, 9.02547 ], [ 0.86633, 9.0037 ], [ 0.94961, 9.01553 ], [ 0.96656, 9.0268 ], [ 0.98362, 9.05249 ], [ 0.99289, 9.05428 ], [ 1.00216, 9.06316 ], [ 1.00114, 9.07498 ], [ 0.98763, 9.10757 ], [ 0.98534, 9.17571 ], [ 0.9933, 9.20037 ], [ 1.00658, 9.20991 ], [ 1.01788, 9.21364 ], [ 1.04091, 9.2136 ], [ 1.08274, 9.23012 ], [ 1.11317, 9.22732 ], [ 1.15962, 9.21651 ], [ 1.1852, 9.23549 ], [ 1.19813, 9.23564 ], [ 1.21007, 9.22291 ], [ 1.26812, 9.24933 ], [ 1.28894, 9.25318 ], [ 1.31377, 9.24574 ], [ 1.3426, 9.25254 ], [ 1.36022, 9.25174 ], [ 1.36783, 9.26616 ], [ 1.37704, 9.26976 ], [ 1.38427, 9.30438 ], [ 1.41304, 9.32449 ], [ 1.42142, 9.30695 ], [ 1.45016, 9.2789 ], [ 1.46201, 9.25473 ], [ 1.52632, 9.19044 ], [ 1.55944, 9.16989 ], [ 1.57896, 9.13187 ], [ 1.59814, 9.11098 ], [ 1.61766, 9.0716 ], [ 1.6156, 9.06269 ], [ 1.62451, 9.04214 ], [ 1.62999, 8.99899 ], [ 1.62211, 8.95516 ], [ 1.63273, 8.86029 ], [ 1.62896, 8.8305 ], [ 1.63358, 8.79608 ], [ 1.62862, 8.64761 ], [ 1.6375, 8.50892 ], [ 1.64916, 8.49076 ], [ 1.65019, 8.47843 ], [ 1.61959, 8.47007 ], [ 1.59383, 8.45528 ], [ 1.52479, 8.43774 ], [ 1.51301, 8.42815 ], [ 1.50068, 8.40322 ], [ 1.48342, 8.3824 ], [ 1.46286, 8.36576 ], [ 1.44197, 8.36165 ], [ 1.40498, 8.36268 ], [ 1.38478, 8.35514 ], [ 1.35738, 8.35103 ], [ 1.33854, 8.35959 ], [ 1.32005, 8.35788 ], [ 1.3108, 8.3661 ], [ 1.28786, 8.36644 ], [ 1.27758, 8.37261 ], [ 1.2447, 8.37295 ], [ 1.22895, 8.37843 ], [ 1.23683, 8.36131 ], [ 1.231, 8.35377 ] ] ] } },
{ "type": "Feature", "properties": { "region": "Kara", "superficie_km2": 11770.5 }, "geometry": { "type": "Polygon", "coordinates": [ [ [ 1.01788, 9.21364 ], [ 0.9933, 9.20037 ], [ 0.98534, 9.17571 ], [ 0.98763, 9.10757 ], [ 1.00114, 9.07498 ], [ 1.00216, 9.06316 ], [ 0.99289, 9.05428 ], [ 0.98362, 9.05249 ], [ 0.96656, 9.0268 ], [ 0.94961, 9.01553 ], [ 0.86633, 9.0037 ], [ 0.78575, 9.02547 ], [ 0.78036, 9.05005 ], [ 0.77367, 9.05379 ], [ 0.75659, 9.0447 ], [ 0.74706, 9.04559 ], [ 0.73464, 9.05308 ], [ 0.72234, 9.04023 ], [ 0.70966, 9.01365 ], [ 0.68505, 9.0128 ], [ 0.66504, 8.9828 ], [ 0.64227, 8.98152 ], [ 0.63381, 8.9649 ], [ 0.63202, 8.94738 ], [ 0.61358, 8.92833 ], [ 0.58417, 8.91537 ], [ 0.57804, 8.90586 ], [ 0.57904, 8.8983 ], [ 0.59098, 8.89128 ], [ 0.5909, 8.87945 ], [ 0.58295, 8.87666 ], [ 0.55993, 8.87867 ], [ 0.54992, 8.87116 ], [ 0.53939, 8.85119 ], [ 0.50378, 8.84102 ], [ 0.51748, 8.85436 ], [ 0.51928, 8.86999 ], [ 0.52689, 8.87051 ], [ 0.52778, 8.87998 ], [ 0.5167, 8.89978 ], [ 0.51609, 8.9206 ], [ 0.45542, 9.02238 ], [ 0.45289, 9.04366 ], [ 0.45555, 9.07254 ], [ 0.4602, 9.08818 ], [ 0.47322, 9.10041 ], [ 0.47623, 9.10911 ], [ 0.46886, 9.14171 ], [ 0.47073, 9.14693 ], [ 0.50014, 9.16227 ], [ 0.5147, 9.19124 ], [ 0.52651, 9.20457 ], [ 0.5029, 9.24462 ], [ 0.50516, 9.26073 ], [ 0.53488, 9.30304 ], [ 0.54483, 9.31021 ], [ 0.5481, 9.3197 ], [ 0.54366, 9.34143 ], [ 0.55827, 9.36424 ], [ 0.56387, 9.38369 ], [ 0.56228, 9.40402 ], [ 0.54783, 9.42521 ], [ 0.52925, 9.43183 ], [ 0.52186, 9.44122 ], [ 0.49966, 9.44107 ], [ 0.50294, 9.45999 ], [ 0.48845, 9.47534 ], [ 0.44769, 9.49383 ], [ 0.43365, 9.49143 ], [ 0.41721, 9.49589 ], [ 0.38571, 9.48527 ], [ 0.38125, 9.48904 ], [ 0.35386, 9.49143 ], [ 0.34084, 9.48287 ], [ 0.34427, 9.46815 ], [ 0.33125, 9.4452 ], [ 0.27235, 9.42226 ], [ 0.25967, 9.42328 ], [ 0.25351, 9.42979 ], [ 0.24358, 9.4315 ], [ 0.24358, 9.43869 ], [ 0.22714, 9.45513 ], [ 0.2244, 9.47123 ], [ 0.22577, 9.47808 ], [ 0.23502, 9.48048 ], [ 0.24769, 9.47397 ], [ 0.26276, 9.47226 ], [ 0.27611, 9.48321 ], [ 0.28981, 9.48561 ], [ 0.30488, 9.49794 ], [ 0.30317, 9.50685 ], [ 0.28776, 9.51712 ], [ 0.24495, 9.51575 ], [ 0.23673, 9.5202 ], [ 0.22988, 9.54178 ], [ 0.2381, 9.57055 ], [ 0.24598, 9.5702 ], [ 0.25694, 9.56267 ], [ 0.28296, 9.57329 ], [ 0.32475, 9.57466 ], [ 0.35146, 9.56849 ], [ 0.37132, 9.57774 ], [ 0.37714, 9.58904 ], [ 0.36027, 9.61955 ], [ 0.3596, 9.63025 ], [ 0.36618, 9.65144 ], [ 0.36194, 9.66212 ], [ 0.34726, 9.67133 ], [ 0.34386, 9.70103 ], [ 0.33838, 9.71221 ], [ 0.33334, 9.71747 ], [ 0.32085, 9.71813 ], [ 0.31471, 9.72448 ], [ 0.32435, 9.75341 ], [ 0.32107, 9.76525 ], [ 0.33071, 9.77336 ], [ 0.32633, 9.78563 ], [ 0.34934, 9.8275 ], [ 0.35257, 9.84091 ], [ 0.34627, 9.88361 ], [ 0.3489, 9.91057 ], [ 0.35723, 9.9235 ], [ 0.37455, 9.92766 ], [ 0.38266, 9.93709 ], [ 0.38068, 9.94454 ], [ 0.35351, 9.9772 ], [ 0.35745, 10.00789 ], [ 0.35329, 10.02871 ], [ 0.36271, 10.03046 ], [ 0.37411, 10.02454 ], [ 0.39099, 10.02367 ], [ 0.40019, 10.01665 ], [ 0.40786, 10.02219 ], [ 0.42242, 9.9942 ], [ 0.41806, 9.97619 ], [ 0.42619, 9.95847 ], [ 0.44711, 9.95644 ], [ 0.45611, 9.94714 ], [ 0.46541, 9.94394 ], [ 0.48603, 9.95353 ], [ 0.49939, 9.94162 ], [ 0.50636, 9.94133 ], [ 0.51391, 9.95034 ], [ 0.51972, 9.9515 ], [ 0.52698, 9.94336 ], [ 0.51507, 9.92478 ], [ 0.51507, 9.91664 ], [ 0.52408, 9.90154 ], [ 0.58457, 9.88109 ], [ 0.58792, 9.88591 ], [ 0.60063, 9.8892 ], [ 0.62617, 9.88352 ], [ 0.63406, 9.89369 ], [ 0.64129, 9.89457 ], [ 0.65422, 9.87791 ], [ 0.67245, 9.88316 ], [ 0.67963, 9.87635 ], [ 0.68286, 9.88747 ], [ 0.67775, 9.90746 ], [ 0.65607, 9.93176 ], [ 0.66887, 9.94882 ], [ 0.66663, 9.95679 ], [ 0.67465, 9.95974 ], [ 0.67772, 9.98281 ], [ 0.64352, 9.989 ], [ 0.67295, 10.01583 ], [ 0.67845, 10.03836 ], [ 0.68697, 10.0532 ], [ 0.68669, 10.08206 ], [ 0.67223, 10.11116 ], [ 0.67571, 10.14132 ], [ 0.68371, 10.14359 ], [ 0.69799, 10.16711 ], [ 0.70474, 10.16803 ], [ 0.74026, 10.14005 ], [ 0.74277, 10.14507 ], [ 0.73308, 10.16839 ], [ 0.75425, 10.18238 ], [ 0.76789, 10.17485 ], [ 0.78116, 10.17951 ], [ 0.79408, 10.17198 ], [ 0.80376, 10.15368 ], [ 0.81417, 10.15476 ], [ 0.82248, 10.16874 ], [ 0.83925, 10.22745 ], [ 0.87699, 10.2547 ], [ 0.90166, 10.28999 ], [ 0.99677, 10.21519 ], [ 0.99999, 10.22002 ], [ 1.36411, 10.01214 ], [ 1.36615, 10.00226 ], [ 1.36391, 9.88579 ], [ 1.36675, 9.75082 ], [ 1.36335, 9.69719 ], [ 1.36975, 9.66155 ], [ 1.36655, 9.6115 ], [ 1.34253, 9.54583 ], [ 1.35934, 9.50779 ], [ 1.36065, 9.48701 ], [ 1.36536, 9.4856 ], [ 1.38977, 9.49717 ], [ 1.40026, 9.44434 ], [ 1.40306, 9.35505 ], [ 1.413, 9.32446 ], [ 1.38427, 9.30438 ], [ 1.37704, 9.26976 ], [ 1.36783, 9.26616 ], [ 1.36022, 9.25174 ], [ 1.3426, 9.25254 ], [ 1.31377, 9.24574 ], [ 1.28894, 9.25318 ], [ 1.26812, 9.24933 ], [ 1.21007, 9.22291 ], [ 1.19813, 9.23564 ], [ 1.1852, 9.23549 ], [ 1.15962, 9.21651 ], [ 1.11317, 9.22732 ], [ 1.08274, 9.23012 ], [ 1.04091, 9.2136 ], [ 1.01788, 9.21364 ] ] ] } },
{ "type": "Feature", "properties": { "region": "Maritime", "superficie_km2": 6383.1 }, "geometry": { "type": "Polygon", "coordinates": [ [ [ 1.77586, 6.41578 ], [ 1.76954, 6.41155 ], [ 1.76922, 6.39924 ], [ 1.77432, 6.39415 ], [ 1.77082, 6.39168 ], [ 1.77242, 6.38026 ], [ 1.78193, 6.37395 ], [ 1.78937, 6.34988 ], [ 1.78272, 6.33914 ], [ 1.79241, 6.32879 ], [ 1.79842, 6.31351 ], [ 1.7979, 6.30682 ], [ 1.78965, 6.30276 ], [ 1.79565, 6.29363 ], [ 1.8055, 6.29101 ], [ 1.80718, 6.28443 ], [ 1.79998, 6.28089 ], [ 1.77029, 6.28188 ], [ 1.76416, 6.27184 ], [ 1.74923, 6.27128 ], [ 1.7099, 6.25677 ], [ 1.68065, 6.25432 ], [ 1.6682, 6.24761 ], [ 1.64816, 6.24844 ], [ 1.62938, 6.24241 ], [ 1.62766, 6.2257 ], [ 1.55835, 6.21276 ], [ 1.54207, 6.20499 ], [ 1.50048, 6.19887 ], [ 1.46878, 6.18805 ], [ 1.39914, 6.17705 ], [ 1.28686, 6.14237 ], [ 1.2037, 6.10997 ], [ 1.19177, 6.10931 ], [ 1.19165, 6.15502 ], [ 1.10657, 6.15694 ], [ 1.08588, 6.16247 ], [ 1.08142, 6.18017 ], [ 1.0583, 6.22025 ], [ 1.02562, 6.24348 ], [ 0.9961, 6.32405 ], [ 0.90391, 6.32101 ], [ 0.86996, 6.36485 ], [ 0.84306, 6.38672 ], [ 0.82373, 6.39415 ], [ 0.78886, 6.39883 ], [ 0.78243, 6.41571 ], [ 0.7626, 6.43182 ], [ 0.75684, 6.43152 ], [ 0.74856, 6.44109 ], [ 0.74133, 6.46166 ], [ 0.72447, 6.48739 ], [ 0.71874, 6.51753 ], [ 0.75239, 6.52727 ], [ 0.76392, 6.52606 ], [ 0.79573, 6.55064 ], [ 0.81666, 6.55272 ], [ 0.82352, 6.55795 ], [ 0.8414, 6.61267 ], [ 0.85492, 6.6295 ], [ 0.8662, 6.6555 ], [ 0.87431, 6.69466 ], [ 0.8801, 6.70151 ], [ 0.90008, 6.70301 ], [ 0.90099, 6.74346 ], [ 0.89698, 6.76999 ], [ 0.93739, 6.80012 ], [ 0.96116, 6.81168 ], [ 0.96406, 6.81715 ], [ 0.9602, 6.8558 ], [ 1.03679, 6.86999 ], [ 1.06003, 6.85811 ], [ 1.09246, 6.82792 ], [ 1.09514, 6.81848 ], [ 1.10473, 6.80945 ], [ 1.133, 6.80479 ], [ 1.14183, 6.79406 ], [ 1.15878, 6.78775 ], [ 1.16982, 6.77571 ], [ 1.18875, 6.76809 ], [ 1.21564, 6.74599 ], [ 1.23973, 6.77091 ], [ 1.24415, 6.76477 ], [ 1.27517, 6.75601 ], [ 1.29377, 6.77701 ], [ 1.35101, 6.81874 ], [ 1.40523, 6.83681 ], [ 1.41037, 6.84366 ], [ 1.47076, 6.83003 ], [ 1.49937, 6.83656 ], [ 1.53201, 6.85865 ], [ 1.55661, 6.90183 ], [ 1.5777, 6.90886 ], [ 1.57669, 6.92209 ], [ 1.58248, 6.91594 ], [ 1.60519, 6.90605 ], [ 1.60663, 6.88339 ], [ 1.59465, 6.86756 ], [ 1.6019, 6.85281 ], [ 1.59956, 6.83186 ], [ 1.6037, 6.82707 ], [ 1.61331, 6.82881 ], [ 1.61504, 6.82538 ], [ 1.59893, 6.81263 ], [ 1.59689, 6.80644 ], [ 1.59862, 6.80061 ], [ 1.61134, 6.79824 ], [ 1.61342, 6.79138 ], [ 1.60833, 6.77042 ], [ 1.62588, 6.75983 ], [ 1.61813, 6.75079 ], [ 1.61953, 6.74145 ], [ 1.60006, 6.72601 ], [ 1.59292, 6.72599 ], [ 1.59215, 6.70621 ], [ 1.57379, 6.68885 ], [ 1.59024, 6.68415 ], [ 1.59356, 6.67537 ], [ 1.60376, 6.66634 ], [ 1.61152, 6.64163 ], [ 1.60301, 6.63694 ], [ 1.60303, 6.63035 ], [ 1.61019, 6.62488 ], [ 1.61243, 6.61087 ], [ 1.6218, 6.60128 ], [ 1.63663, 6.6005 ], [ 1.64362, 6.58084 ], [ 1.65615, 6.5778 ], [ 1.66273, 6.58419 ], [ 1.67416, 6.58312 ], [ 1.67418, 6.57301 ], [ 1.66641, 6.56343 ], [ 1.67082, 6.55597 ], [ 1.684, 6.56062 ], [ 1.68775, 6.55359 ], [ 1.69632, 6.5534 ], [ 1.69853, 6.54813 ], [ 1.69569, 6.54285 ], [ 1.70186, 6.53627 ], [ 1.70236, 6.51297 ], [ 1.69424, 6.50966 ], [ 1.69558, 6.50043 ], [ 1.70591, 6.4976 ], [ 1.7125, 6.50025 ], [ 1.71954, 6.49544 ], [ 1.7259, 6.50183 ], [ 1.73033, 6.48755 ], [ 1.7376, 6.48098 ], [ 1.73387, 6.47635 ], [ 1.74069, 6.47483 ], [ 1.75303, 6.4597 ], [ 1.75771, 6.43355 ], [ 1.76475, 6.4272 ], [ 1.77267, 6.4259 ], [ 1.77639, 6.42942 ], [ 1.78079, 6.4268 ], [ 1.77586, 6.41578 ] ] ] } },
{ "type": "Feature", "properties": { "region": "Plateaux", "superficie_km2": 17406.5 }, "geometry": { "type": "Polygon", "coordinates": [ [ [ 0.96238, 6.85649 ], [ 0.96406, 6.81715 ], [ 0.96116, 6.81168 ], [ 0.93739, 6.80012 ], [ 0.89698, 6.76999 ], [ 0.90099, 6.74346 ], [ 0.90008, 6.70301 ], [ 0.8801, 6.70151 ], [ 0.87431, 6.69466 ], [ 0.8662, 6.6555 ], [ 0.85492, 6.6295 ], [ 0.8414, 6.61267 ], [ 0.82352, 6.55795 ], [ 0.81666, 6.55272 ], [ 0.79573, 6.55064 ], [ 0.76392, 6.52606 ], [ 0.75239, 6.52727 ], [ 0.7183, 6.51674 ], [ 0.71376, 6.51993 ], [ 0.71317, 6.52766 ], [ 0.73809, 6.55329 ], [ 0.73745, 6.57707 ], [ 0.72685, 6.58543 ], [ 0.69118, 6.57836 ], [ 0.68122, 6.58382 ], [ 0.68829, 6.59217 ], [ 0.67995, 6.60692 ], [ 0.6709, 6.61124 ], [ 0.65856, 6.60651 ], [ 0.63779, 6.63222 ], [ 0.63532, 6.65073 ], [ 0.64375, 6.69248 ], [ 0.64375, 6.74512 ], [ 0.62058, 6.75473 ], [ 0.60742, 6.75328 ], [ 0.58768, 6.76276 ], [ 0.57649, 6.76131 ], [ 0.57228, 6.76526 ], [ 0.5665, 6.79999 ], [ 0.57243, 6.80354 ], [ 0.58072, 6.79775 ], [ 0.57782, 6.80762 ], [ 0.55529, 6.82519 ], [ 0.53012, 6.82583 ], [ 0.53023, 6.85004 ], [ 0.53899, 6.87602 ], [ 0.55153, 6.88713 ], [ 0.55811, 6.91407 ], [ 0.54618, 6.9334 ], [ 0.52624, 6.93957 ], [ 0.51472, 6.94841 ], [ 0.51657, 6.96672 ], [ 0.59883, 7.02841 ], [ 0.59554, 7.05988 ], [ 0.61046, 7.0804 ], [ 0.6144, 7.0922 ], [ 0.59824, 7.12153 ], [ 0.59824, 7.13277 ], [ 0.62106, 7.17069 ], [ 0.63166, 7.20025 ], [ 0.64323, 7.28139 ], [ 0.65705, 7.31738 ], [ 0.64548, 7.35996 ], [ 0.64862, 7.37559 ], [ 0.64239, 7.39371 ], [ 0.62837, 7.4015 ], [ 0.61471, 7.4023 ], [ 0.57856, 7.38744 ], [ 0.56049, 7.39065 ], [ 0.53478, 7.40913 ], [ 0.52514, 7.44649 ], [ 0.51951, 7.45131 ], [ 0.51389, 7.4489 ], [ 0.51269, 7.45492 ], [ 0.50224, 7.46376 ], [ 0.5155, 7.47661 ], [ 0.51711, 7.48384 ], [ 0.50827, 7.52441 ], [ 0.51751, 7.55895 ], [ 0.51791, 7.58747 ], [ 0.53679, 7.59992 ], [ 0.54522, 7.60073 ], [ 0.54844, 7.60715 ], [ 0.57695, 7.61642 ], [ 0.57414, 7.64853 ], [ 0.58981, 7.70717 ], [ 0.60788, 7.70677 ], [ 0.61592, 7.70195 ], [ 0.61752, 7.70476 ], [ 0.60828, 7.74493 ], [ 0.61585, 7.76908 ], [ 0.60903, 7.78611 ], [ 0.6219, 7.85954 ], [ 0.61602, 7.89098 ], [ 0.66619, 7.89399 ], [ 0.68493, 7.90213 ], [ 0.70007, 7.92106 ], [ 0.68969, 7.95152 ], [ 0.69288, 7.95967 ], [ 0.70139, 7.96326 ], [ 0.70953, 7.96459 ], [ 0.71265, 7.95186 ], [ 0.77307, 7.93235 ], [ 0.82063, 7.9485 ], [ 0.83161, 7.96818 ], [ 0.83712, 8.03874 ], [ 0.8618, 8.03184 ], [ 0.86816, 8.02215 ], [ 0.88451, 7.95946 ], [ 0.91903, 7.96461 ], [ 0.96325, 7.98097 ], [ 0.98899, 7.97158 ], [ 1.02987, 7.96431 ], [ 1.06269, 7.94943 ], [ 1.1418, 7.96192 ], [ 1.16981, 7.98539 ], [ 1.18571, 7.98993 ], [ 1.19555, 8.00053 ], [ 1.19745, 8.01529 ], [ 1.21675, 8.03346 ], [ 1.23476, 8.03228 ], [ 1.251, 8.05677 ], [ 1.2507, 8.07832 ], [ 1.23042, 8.09194 ], [ 1.23042, 8.09557 ], [ 1.25548, 8.10363 ], [ 1.26444, 8.18626 ], [ 1.26033, 8.1991 ], [ 1.25185, 8.20418 ], [ 1.24337, 8.21654 ], [ 1.24603, 8.23741 ], [ 1.26018, 8.24583 ], [ 1.25149, 8.26554 ], [ 1.24008, 8.27505 ], [ 1.22998, 8.29589 ], [ 1.22929, 8.34692 ], [ 1.23683, 8.36131 ], [ 1.22895, 8.37843 ], [ 1.2447, 8.37295 ], [ 1.27758, 8.37261 ], [ 1.28786, 8.36644 ], [ 1.3108, 8.3661 ], [ 1.32005, 8.35788 ], [ 1.33854, 8.35959 ], [ 1.35738, 8.35103 ], [ 1.38478, 8.35514 ], [ 1.40498, 8.36268 ], [ 1.45498, 8.3637 ], [ 1.46937, 8.36816 ], [ 1.48342, 8.3824 ], [ 1.50068, 8.40322 ], [ 1.51301, 8.42815 ], [ 1.52479, 8.43774 ], [ 1.59383, 8.45528 ], [ 1.61959, 8.47007 ], [ 1.65055, 8.47829 ], [ 1.63966, 8.43251 ], [ 1.64609, 8.41725 ], [ 1.63324, 8.40399 ], [ 1.62681, 8.37989 ], [ 1.62532, 8.3516 ], [ 1.63685, 8.33972 ], [ 1.64127, 8.30036 ], [ 1.63404, 7.8969 ], [ 1.62965, 7.8266 ], [ 1.63592, 7.79648 ], [ 1.6309, 7.67661 ], [ 1.63694, 7.64138 ], [ 1.65076, 7.61343 ], [ 1.64947, 7.54819 ], [ 1.65925, 7.52129 ], [ 1.66875, 7.51815 ], [ 1.67743, 7.49758 ], [ 1.6755, 7.49437 ], [ 1.64818, 7.49244 ], [ 1.64401, 7.48569 ], [ 1.63565, 7.41661 ], [ 1.63607, 7.20597 ], [ 1.64159, 6.99399 ], [ 1.55762, 6.99802 ], [ 1.55912, 6.97112 ], [ 1.57569, 6.94652 ], [ 1.5777, 6.90886 ], [ 1.55661, 6.90183 ], [ 1.53201, 6.85865 ], [ 1.51946, 6.84761 ], [ 1.49937, 6.83656 ], [ 1.47076, 6.83003 ], [ 1.41037, 6.84366 ], [ 1.40523, 6.83681 ], [ 1.35101, 6.81874 ], [ 1.29377, 6.77701 ], [ 1.27517, 6.75601 ], [ 1.24415, 6.76477 ], [ 1.23973, 6.77091 ], [ 1.2196, 6.74711 ], [ 1.21213, 6.74664 ], [ 1.18875, 6.76809 ], [ 1.16982, 6.77571 ], [ 1.14997, 6.79299 ], [ 1.14183, 6.79406 ], [ 1.133, 6.80479 ], [ 1.10473, 6.80945 ], [ 1.09514, 6.81848 ], [ 1.09246, 6.82792 ], [ 1.06003, 6.85811 ], [ 1.03348, 6.87107 ], [ 1.01812, 6.86469 ], [ 0.96238, 6.85649 ] ] ] } },
{ "type": "Feature", "properties": { "region": "Savanes", "superficie_km2": 8560.4 }, "geometry": { "type": "Polygon", "coordinates": [ [ [ 0.81502, 10.70464 ], [ 0.80646, 10.58116 ], [ 0.78349, 10.51264 ], [ 0.77434, 10.38509 ], [ 0.90166, 10.28999 ], [ 0.87699, 10.2547 ], [ 0.83925, 10.22745 ], [ 0.82248, 10.16874 ], [ 0.81417, 10.15476 ], [ 0.80376, 10.15368 ], [ 0.79408, 10.17198 ], [ 0.78116, 10.17951 ], [ 0.76789, 10.17485 ], [ 0.75425, 10.18238 ], [ 0.73308, 10.16839 ], [ 0.74277, 10.14507 ], [ 0.74026, 10.14005 ], [ 0.70474, 10.16803 ], [ 0.69799, 10.16711 ], [ 0.68371, 10.14359 ], [ 0.67571, 10.14132 ], [ 0.67223, 10.11116 ], [ 0.68669, 10.08206 ], [ 0.68697, 10.0532 ], [ 0.67845, 10.03836 ], [ 0.67295, 10.01583 ], [ 0.64352, 9.989 ], [ 0.67772, 9.98281 ], [ 0.67465, 9.95974 ], [ 0.66663, 9.95679 ], [ 0.66887, 9.94882 ], [ 0.65607, 9.93176 ], [ 0.67775, 9.90746 ], [ 0.68286, 9.88747 ], [ 0.6807, 9.87742 ], [ 0.67245, 9.88316 ], [ 0.65422, 9.87791 ], [ 0.64129, 9.89457 ], [ 0.63406, 9.89369 ], [ 0.62617, 9.88352 ], [ 0.60063, 9.8892 ], [ 0.58792, 9.88591 ], [ 0.58457, 9.88109 ], [ 0.57055, 9.88498 ], [ 0.52408, 9.90154 ], [ 0.51856, 9.90822 ], [ 0.51507, 9.92478 ], [ 0.52698, 9.94336 ], [ 0.51972, 9.9515 ], [ 0.51391, 9.95034 ], [ 0.50636, 9.94133 ], [ 0.49939, 9.94162 ], [ 0.48603, 9.95353 ], [ 0.46541, 9.94394 ], [ 0.45611, 9.94714 ], [ 0.44711, 9.95644 ], [ 0.42619, 9.95847 ], [ 0.41806, 9.97619 ], [ 0.42242, 9.9942 ], [ 0.40789, 10.01947 ], [ 0.41341, 10.06004 ], [ 0.38579, 10.0769 ], [ 0.35852, 10.08085 ], [ 0.34955, 10.08731 ], [ 0.3474, 10.09556 ], [ 0.35784, 10.13915 ], [ 0.34887, 10.16093 ], [ 0.34887, 10.18431 ], [ 0.35816, 10.21667 ], [ 0.35942, 10.25324 ], [ 0.37915, 10.2719 ], [ 0.36982, 10.28015 ], [ 0.39314, 10.30132 ], [ 0.39207, 10.3049 ], [ 0.38453, 10.30849 ], [ 0.31888, 10.30526 ], [ 0.32031, 10.3128 ], [ 0.33143, 10.3189 ], [ 0.33215, 10.32894 ], [ 0.32534, 10.33504 ], [ 0.31457, 10.33361 ], [ 0.30632, 10.36339 ], [ 0.28946, 10.37236 ], [ 0.28838, 10.37774 ], [ 0.29897, 10.39155 ], [ 0.2943, 10.40267 ], [ 0.28174, 10.41559 ], [ 0.26955, 10.41523 ], [ 0.25986, 10.40518 ], [ 0.2351, 10.40698 ], [ 0.21331, 10.4173 ], [ 0.20259, 10.41162 ], [ 0.20385, 10.39837 ], [ 0.19281, 10.3968 ], [ 0.18335, 10.41276 ], [ 0.16952, 10.42286 ], [ 0.16602, 10.43131 ], [ 0.16766, 10.44004 ], [ 0.15481, 10.45397 ], [ 0.15366, 10.47213 ], [ 0.14153, 10.51416 ], [ 0.13159, 10.53102 ], [ 0.10997, 10.54293 ], [ 0.07173, 10.55453 ], [ 0.04841, 10.58748 ], [ -0.05433, 10.63154 ], [ -0.06398, 10.64138 ], [ -0.07118, 10.67569 ], [ -0.08798, 10.71499 ], [ -0.07435, 10.72384 ], [ -0.0776, 10.75225 ], [ -0.07292, 10.75989 ], [ -0.07348, 10.76966 ], [ -0.06759, 10.76898 ], [ -0.06212, 10.78143 ], [ -0.04846, 10.78993 ], [ -0.04554, 10.79981 ], [ -0.03429, 10.80769 ], [ -0.0282, 10.81821 ], [ -0.02646, 10.82539 ], [ -0.03396, 10.85026 ], [ -0.03174, 10.87015 ], [ -0.01407, 10.91065 ], [ -0.01575, 10.93241 ], [ -0.01167, 10.95645 ], [ 0.00686, 10.96153 ], [ 0.01785, 10.97235 ], [ 0.02671, 10.97432 ], [ 0.03212, 10.98449 ], [ 0.02703, 11.00581 ], [ 0.02409, 11.05505 ], [ 0.00782, 11.09765 ], [ -0.00506, 11.10526 ], [ -0.02583, 11.10804 ], [ -0.05478, 11.09986 ], [ -0.06749, 11.08853 ], [ -0.07506, 11.08825 ], [ -0.10974, 11.09659 ], [ -0.12479, 11.10493 ], [ -0.13984, 11.10427 ], [ -0.14197, 11.11916 ], [ -0.13171, 11.13804 ], [ -0.09351, 11.12929 ], [ 0.03551, 11.11131 ], [ 0.10077, 11.09295 ], [ 0.29153, 11.05043 ], [ 0.35926, 11.04474 ], [ 0.50393, 11.01274 ], [ 0.50272, 11.00427 ], [ 0.49136, 10.98685 ], [ 0.50711, 10.98473 ], [ 0.50984, 10.97777 ], [ 0.50923, 10.95263 ], [ 0.50075, 10.93658 ], [ 0.57555, 10.97868 ], [ 0.59099, 10.97595 ], [ 0.63914, 10.99957 ], [ 0.91229, 10.99654 ], [ 0.89018, 10.92023 ], [ 0.90078, 10.88692 ], [ 0.88503, 10.86148 ], [ 0.87369, 10.80637 ], [ 0.83678, 10.75479 ], [ 0.81502, 10.70464 ] ] ] } }
]
}
