{
"type": "FeatureCollection",
"name": "geo_prefectures",
"crs": { "type": "name", "properties": { "name": "urn:ogc:def:crs:OGC:1.3:CRS84" } },
"xy_coordinate_resolution": 1e-05,
"features": [
{ "type": "Feature", "properties": { "pcode": "TG0101", "prefecture": "Blitta", "region": "Centrale", "superficie_km2": 3128.0 }, "geometry": { "type": "Polygon", "coordinates": [ [ [ 0.77185, 8.41271 ], [ 0.77235, 8.38897 ], [ 0.73814, 8.36934 ], [ 0.72329, 8.37429 ], [ 0.7136, 8.36308 ], [ 0.71472, 8.35733 ], [ 0.72197, 8.35269 ], [ 0.71986, 8.34297 ], [ 0.7302, 8.33165 ], [ 0.73021, 8.30308 ], [ 0.72454, 8.28326 ], [ 0.69313, 8.28056 ], [ 0.68485, 8.27583 ], [ 0.67553, 8.26282 ], [ 0.64111, 8.25732 ], [ 0.6258, 8.23213 ], [ 0.62387, 8.22067 ], [ 0.59446, 8.20533 ], [ 0.58954, 8.19662 ], [ 0.59143, 8.18754 ], [ 0.59938, 8.17883 ], [ 0.60316, 8.16142 ], [ 0.60289, 8.14033 ], [ 0.59547, 8.13552 ], [ 0.59105, 8.10843 ], [ 0.59219, 8.07133 ], [ 0.59862, 8.04597 ], [ 0.59673, 8.03802 ], [ 0.60722, 8.00368 ], [ 0.60108, 7.99998 ], [ 0.59768, 7.97575 ], [ 0.60941, 7.92352 ], [ 0.61357, 7.92087 ], [ 0.61168, 7.90686 ], [ 0.61585, 7.89096 ], [ 0.66619, 7.89399 ], [ 0.68493, 7.90213 ], [ 0.70007, 7.92106 ], [ 0.68969, 7.95152 ], [ 0.69288, 7.95967 ], [ 0.70139, 7.96326 ], [ 0.70953, 7.96459 ], [ 0.71265, 7.95186 ], [ 0.77307, 7.93235 ], [ 0.82063, 7.9485 ], [ 0.83161, 7.96818 ], [ 0.83712, 8.03874 ], [ 0.8618, 8.03184 ], [ 0.86816, 8.02215 ], [ 0.88451, 7.95946 ], [ 0.91903, 7.96461 ], [ 0.96325, 7.98097 ], [ 0.98899, 7.97158 ], [ 1.02987, 7.96431 ], [ 1.05928, 7.94981 ], [ 1.07442, 7.94905 ], [ 1.1418, 7.96192 ], [ 1.16981, 7.98539 ], [ 1.18571, 7.98993 ], [ 1.19555, 8.00053 ], [ 1.19745, 8.01529 ], [ 1.21675, 8.03346 ], [ 1.23476, 8.03228 ], [ 1.251, 8.05677 ], [ 1.25221, 8.06912 ], [ 1.2481, 8.08201 ], [ 1.23042, 8.09194 ], [ 1.23042, 8.09557 ], [ 1.25548, 8.10363 ], [ 1.26444, 8.18626 ], [ 1.26033, 8.1991 ], [ 1.24627, 8.21048 ], [ 1.24288, 8.22041 ], [ 1.24702, 8.23902 ], [ 1.26018, 8.24583 ], [ 1.25149, 8.26554 ], [ 1.24008, 8.27505 ], [ 1.22998, 8.29589 ], [ 1.22929, 8.34692 ], [ 1.23537, 8.35972 ], [ 1.2196, 8.36264 ], [ 1.17646, 8.38082 ], [ 1.16154, 8.36664 ], [ 1.13351, 8.36814 ], [ 1.05536, 8.39327 ], [ 1.00978, 8.38359 ], [ 0.94429, 8.37876 ], [ 0.93207, 8.38454 ], [ 0.91944, 8.38043 ], [ 0.88294, 8.3876 ], [ 0.86491, 8.3812 ], [ 0.86405, 8.37771 ], [ 0.77185, 8.41271 ] ] ] } },
{ "type": "Feature", "properties": { "pcode": "TG0102", "prefecture": "Mô", "region": "Centrale", "superficie_km2": 1254.5 }, "geometry": { "type": "Polygon", "coordinates": [ [ [ 0.6932, 9.01021 ], [ 0.69611, 9.01245 ], [ 0.69106, 9.01481 ], [ 0.68505, 9.0128 ], [ 0.66504, 8.9828 ], [ 0.64227, 8.98152 ], [ 0.63381, 8.9649 ], [ 0.63202, 8.94738 ], [ 0.61358, 8.92833 ], [ 0.58417, 8.91537 ], [ 0.57804, 8.90586 ], [ 0.57904, 8.8983 ], [ 0.59098, 8.89128 ], [ 0.5909, 8.87945 ], [ 0.58295, 8.87666 ], [ 0.55993, 8.87867 ], [ 0.54992, 8.87116 ], [ 0.53939, 8.85119 ], [ 0.50237, 8.84113 ], [ 0.49736, 8.8126 ], [ 0.47134, 8.79658 ], [ 0.46583, 8.79608 ], [ 0.45182, 8.80909 ], [ 0.4323, 8.79808 ], [ 0.4378, 8.79058 ], [ 0.4348, 8.78407 ], [ 0.42679, 8.78407 ], [ 0.41878, 8.79408 ], [ 0.41328, 8.79508 ], [ 0.39125, 8.79158 ], [ 0.38425, 8.77956 ], [ 0.39576, 8.76004 ], [ 0.38625, 8.75754 ], [ 0.38475, 8.75204 ], [ 0.37674, 8.74903 ], [ 0.38775, 8.72451 ], [ 0.4343, 8.66295 ], [ 0.47284, 8.59788 ], [ 0.49136, 8.59788 ], [ 0.51338, 8.56935 ], [ 0.51888, 8.56785 ], [ 0.5329, 8.57385 ], [ 0.5369, 8.55934 ], [ 0.55842, 8.55033 ], [ 0.57844, 8.52681 ], [ 0.61498, 8.51329 ], [ 0.6305, 8.5243 ], [ 0.68255, 8.54282 ], [ 0.78811, 8.63881 ], [ 0.77715, 8.65143 ], [ 0.76464, 8.65844 ], [ 0.74912, 8.68196 ], [ 0.72059, 8.70299 ], [ 0.70707, 8.70781 ], [ 0.69807, 8.83412 ], [ 0.71008, 8.84964 ], [ 0.74211, 8.86065 ], [ 0.7407, 8.87004 ], [ 0.71784, 8.89243 ], [ 0.71283, 8.90694 ], [ 0.71283, 8.94648 ], [ 0.70783, 8.97852 ], [ 0.6932, 9.01021 ] ] ] } },
{ "type": "Feature", "properties": { "pcode": "TG0103", "prefecture": "Sotouboua", "region": "Centrale", "superficie_km2": 3146.2 }, "geometry": { "type": "Polygon", "coordinates": [ [ [ 0.78036, 9.05005 ], [ 0.76749, 9.05281 ], [ 0.75659, 9.0447 ], [ 0.74706, 9.04559 ], [ 0.73464, 9.05308 ], [ 0.72234, 9.04023 ], [ 0.71391, 9.01793 ], [ 0.70966, 9.01365 ], [ 0.6932, 9.01021 ], [ 0.70783, 8.97852 ], [ 0.71283, 8.94648 ], [ 0.71283, 8.90694 ], [ 0.71784, 8.89243 ], [ 0.7407, 8.87004 ], [ 0.74211, 8.86065 ], [ 0.71008, 8.84964 ], [ 0.69807, 8.83412 ], [ 0.70707, 8.70781 ], [ 0.72059, 8.70299 ], [ 0.74912, 8.68196 ], [ 0.76464, 8.65844 ], [ 0.77715, 8.65143 ], [ 0.78811, 8.63881 ], [ 0.68255, 8.54282 ], [ 0.6305, 8.5243 ], [ 0.61699, 8.51329 ], [ 0.64952, 8.48326 ], [ 0.65614, 8.46244 ], [ 0.65853, 8.43071 ], [ 0.66453, 8.4197 ], [ 0.68555, 8.40968 ], [ 0.69757, 8.39767 ], [ 0.70808, 8.39617 ], [ 0.70858, 8.38766 ], [ 0.71408, 8.38416 ], [ 0.71444, 8.36405 ], [ 0.72329, 8.37429 ], [ 0.73814, 8.36934 ], [ 0.77235, 8.38897 ], [ 0.77185, 8.41271 ], [ 0.86405, 8.37771 ], [ 0.86491, 8.3812 ], [ 0.88294, 8.3876 ], [ 0.91944, 8.38043 ], [ 0.93207, 8.38454 ], [ 0.94429, 8.37876 ], [ 1.00978, 8.38359 ], [ 1.05536, 8.39327 ], [ 1.13351, 8.36814 ], [ 1.16154, 8.36664 ], [ 1.17646, 8.38082 ], [ 1.2196, 8.36264 ], [ 1.23537, 8.35972 ], [ 1.22895, 8.37843 ], [ 1.2352, 8.39597 ], [ 1.23537, 8.41398 ], [ 1.22698, 8.44876 ], [ 1.22946, 8.46593 ], [ 1.23803, 8.48169 ], [ 1.22707, 8.51217 ], [ 1.23597, 8.53272 ], [ 1.25207, 8.53614 ], [ 1.26868, 8.5483 ], [ 1.26868, 8.55549 ], [ 1.25196, 8.55557 ], [ 1.24265, 8.56149 ], [ 1.25008, 8.58442 ], [ 1.25707, 8.58896 ], [ 1.26212, 8.60056 ], [ 1.25344, 8.6396 ], [ 1.26837, 8.65737 ], [ 1.26287, 8.6682 ], [ 1.2391, 8.67541 ], [ 1.23346, 8.67369 ], [ 1.2125, 8.68428 ], [ 1.20339, 8.7268 ], [ 1.19805, 8.7365 ], [ 1.17754, 8.74544 ], [ 1.14935, 8.74456 ], [ 1.13153, 8.7393 ], [ 1.10394, 8.75543 ], [ 1.09056, 8.75536 ], [ 1.07796, 8.74717 ], [ 1.06385, 8.74561 ], [ 1.04067, 8.7699 ], [ 1.03025, 8.77355 ], [ 1.01564, 8.78732 ], [ 0.98011, 8.78782 ], [ 0.9736, 8.78482 ], [ 0.9706, 8.7703 ], [ 0.96259, 8.7698 ], [ 0.96109, 8.77581 ], [ 0.95108, 8.78432 ], [ 0.93506, 8.79233 ], [ 0.93206, 8.80184 ], [ 0.94507, 8.83587 ], [ 0.95508, 8.84738 ], [ 0.96409, 8.86991 ], [ 0.96609, 8.88742 ], [ 0.96259, 8.89343 ], [ 0.95221, 8.90477 ], [ 0.92317, 8.90978 ], [ 0.90305, 8.91781 ], [ 0.87655, 9.00199 ], [ 0.842, 9.01256 ], [ 0.822, 9.01338 ], [ 0.78575, 9.02547 ], [ 0.78036, 9.05005 ] ] ] } },
{ "type": "Feature", "properties": { "pcode": "TG0104", "prefecture": "Tchamba", "region": "Centrale", "superficie_km2": 3197.3 }, "geometry": { "type": "Polygon", "coordinates": [ [ [ 1.62211, 8.95516 ], [ 1.62999, 8.99899 ], [ 1.62451, 9.04214 ], [ 1.6156, 9.06269 ], [ 1.61766, 9.0716 ], [ 1.59814, 9.11098 ], [ 1.57896, 9.13187 ], [ 1.55944, 9.16989 ], [ 1.52632, 9.19044 ], [ 1.47542, 9.24077 ], [ 1.46201, 9.25473 ], [ 1.44462, 9.28428 ], [ 1.43074, 9.26315 ], [ 1.42057, 9.2295 ], [ 1.39655, 9.19574 ], [ 1.39079, 9.15975 ], [ 1.41119, 9.13189 ], [ 1.41046, 9.12023 ], [ 1.39745, 9.099 ], [ 1.38991, 9.06851 ], [ 1.37791, 9.05779 ], [ 1.36283, 9.03354 ], [ 1.35034, 9.02938 ], [ 1.37562, 9.0035 ], [ 1.38008, 8.99114 ], [ 1.37622, 8.98149 ], [ 1.36818, 8.97227 ], [ 1.35599, 8.969 ], [ 1.3084, 8.97465 ], [ 1.29502, 8.96781 ], [ 1.2968, 8.94015 ], [ 1.2846, 8.90571 ], [ 1.28318, 8.8693 ], [ 1.28484, 8.8624 ], [ 1.30607, 8.85107 ], [ 1.31026, 8.8446 ], [ 1.32415, 8.81605 ], [ 1.32663, 8.80196 ], [ 1.3134, 8.79501 ], [ 1.3073, 8.78702 ], [ 1.30616, 8.76227 ], [ 1.27238, 8.73591 ], [ 1.27729, 8.71953 ], [ 1.27343, 8.71239 ], [ 1.25975, 8.70347 ], [ 1.27016, 8.6648 ], [ 1.2651, 8.65172 ], [ 1.25344, 8.6396 ], [ 1.26212, 8.60056 ], [ 1.25707, 8.58896 ], [ 1.25008, 8.58442 ], [ 1.24265, 8.56149 ], [ 1.25196, 8.55557 ], [ 1.26868, 8.55549 ], [ 1.26868, 8.5483 ], [ 1.25207, 8.53614 ], [ 1.23597, 8.53272 ], [ 1.22844, 8.52073 ], [ 1.22707, 8.51217 ], [ 1.23803, 8.48169 ], [ 1.22775, 8.46079 ], [ 1.22698, 8.44876 ], [ 1.23537, 8.41398 ], [ 1.2352, 8.39597 ], [ 1.22895, 8.37843 ], [ 1.2447, 8.37295 ], [ 1.27758, 8.37261 ], [ 1.28786, 8.36644 ], [ 1.3108, 8.3661 ], [ 1.32005, 8.35788 ], [ 1.33854, 8.35959 ], [ 1.35738, 8.35103 ], [ 1.38478, 8.35514 ], [ 1.40498, 8.36268 ], [ 1.45498, 8.3637 ], [ 1.46937, 8.36816 ], [ 1.48342, 8.3824 ], [ 1.50068, 8.40322 ], [ 1.51301, 8.42815 ], [ 1.52479, 8.43774 ], [ 1.59383, 8.45528 ], [ 1.61959, 8.47007 ], [ 1.65019, 8.47843 ], [ 1.64916, 8.49076 ], [ 1.6375, 8.50892 ], [ 1.62862, 8.64761 ], [ 1.63358, 8.79608 ], [ 1.62896, 8.8305 ], [ 1.63273, 8.86029 ], [ 1.62211, 8.95516 ] ] ] } },
{ "type": "Feature", "properties": { "pcode": "TG0105", "prefecture": "Tchaoudjo", "region": "Centrale", "superficie_km2": 2395.6 }, "geometry": { "type": "Polygon", "coordinates": [ [ [ 1.43074, 9.26315 ], [ 1.44455, 9.28421 ], [ 1.42142, 9.30695 ], [ 1.41304, 9.32449 ], [ 1.38427, 9.30438 ], [ 1.37704, 9.26976 ], [ 1.36783, 9.26616 ], [ 1.36022, 9.25174 ], [ 1.3426, 9.25254 ], [ 1.31377, 9.24574 ], [ 1.28894, 9.25318 ], [ 1.26812, 9.24933 ], [ 1.21007, 9.22291 ], [ 1.19813, 9.23564 ], [ 1.1852, 9.23549 ], [ 1.15962, 9.21651 ], [ 1.11317, 9.22732 ], [ 1.07673, 9.22932 ], [ 1.04091, 9.2136 ], [ 1.01788, 9.21364 ], [ 1.00658, 9.20991 ], [ 0.9933, 9.20037 ], [ 0.98534, 9.17571 ], [ 0.98763, 9.10757 ], [ 1.00308, 9.06884 ], [ 1.00028, 9.05929 ], [ 0.98362, 9.05249 ], [ 0.96656, 9.0268 ], [ 0.94961, 9.01553 ], [ 0.87327, 9.00413 ], [ 0.88409, 8.98204 ], [ 0.90305, 8.91781 ], [ 0.92317, 8.90978 ], [ 0.95221, 8.90477 ], [ 0.96609, 8.88742 ], [ 0.96059, 8.8594 ], [ 0.93406, 8.81135 ], [ 0.93506, 8.79233 ], [ 0.95108, 8.78432 ], [ 0.96109, 8.77581 ], [ 0.96259, 8.7698 ], [ 0.9706, 8.7703 ], [ 0.9736, 8.78482 ], [ 0.98011, 8.78782 ], [ 1.01564, 8.78732 ], [ 1.03025, 8.77355 ], [ 1.04067, 8.7699 ], [ 1.06385, 8.74561 ], [ 1.07796, 8.74717 ], [ 1.09056, 8.75536 ], [ 1.10394, 8.75543 ], [ 1.13153, 8.7393 ], [ 1.14935, 8.74456 ], [ 1.17754, 8.74544 ], [ 1.19805, 8.7365 ], [ 1.20339, 8.7268 ], [ 1.2125, 8.68428 ], [ 1.23346, 8.67369 ], [ 1.2391, 8.67541 ], [ 1.26287, 8.6682 ], [ 1.26868, 8.65867 ], [ 1.26986, 8.67402 ], [ 1.26272, 8.68711 ], [ 1.25975, 8.70347 ], [ 1.27343, 8.71239 ], [ 1.27729, 8.71953 ], [ 1.27238, 8.73591 ], [ 1.30616, 8.76227 ], [ 1.3073, 8.78702 ], [ 1.3134, 8.79501 ], [ 1.32663, 8.80196 ], [ 1.32415, 8.81605 ], [ 1.31026, 8.8446 ], [ 1.30607, 8.85107 ], [ 1.28484, 8.8624 ], [ 1.28318, 8.8693 ], [ 1.2846, 8.90571 ], [ 1.2968, 8.94015 ], [ 1.29502, 8.96781 ], [ 1.3084, 8.97465 ], [ 1.35599, 8.969 ], [ 1.36818, 8.97227 ], [ 1.37622, 8.98149 ], [ 1.38008, 8.99114 ], [ 1.37562, 9.0035 ], [ 1.35034, 9.02938 ], [ 1.36283, 9.03354 ], [ 1.37791, 9.05779 ], [ 1.38991, 9.06851 ], [ 1.39745, 9.099 ], [ 1.41046, 9.12023 ], [ 1.41119, 9.13189 ], [ 1.39079, 9.16036 ], [ 1.39609, 9.17719 ], [ 1.39655, 9.19574 ], [ 1.42057, 9.2295 ], [ 1.43074, 9.26315 ] ] ] } },
{ "type": "Feature", "properties": { "pcode": "TG0201", "prefecture": "Assoli", "region": "Kara", "superficie_km2": 933.1 }, "geometry": { "type": "Polygon", "coordinates": [ [ [ 1.34821, 9.45315 ], [ 1.3394, 9.46156 ], [ 1.33019, 9.46156 ], [ 1.32805, 9.43859 ], [ 1.29324, 9.42927 ], [ 1.22961, 9.44413 ], [ 1.21319, 9.44453 ], [ 1.19157, 9.42211 ], [ 1.16652, 9.41616 ], [ 1.15903, 9.40928 ], [ 1.13191, 9.4121 ], [ 1.11939, 9.40522 ], [ 1.10228, 9.39127 ], [ 1.09347, 9.36284 ], [ 1.08026, 9.36645 ], [ 1.06704, 9.39087 ], [ 1.05019, 9.40954 ], [ 1.03101, 9.40569 ], [ 1.01099, 9.4121 ], [ 0.98416, 9.45254 ], [ 0.97135, 9.40329 ], [ 0.95773, 9.38607 ], [ 0.95413, 9.37085 ], [ 0.95749, 9.33837 ], [ 0.97373, 9.33184 ], [ 0.98433, 9.31373 ], [ 0.98897, 9.31387 ], [ 1.00994, 9.29087 ], [ 1.02617, 9.28575 ], [ 1.03346, 9.25976 ], [ 1.03311, 9.23798 ], [ 1.02465, 9.21711 ], [ 1.01788, 9.21364 ], [ 1.04091, 9.2136 ], [ 1.08274, 9.23012 ], [ 1.11317, 9.22732 ], [ 1.15962, 9.21651 ], [ 1.1852, 9.23549 ], [ 1.19813, 9.23564 ], [ 1.21007, 9.22291 ], [ 1.26812, 9.24933 ], [ 1.28894, 9.25318 ], [ 1.31377, 9.24574 ], [ 1.3426, 9.25254 ], [ 1.36022, 9.25174 ], [ 1.36783, 9.26616 ], [ 1.37704, 9.26976 ], [ 1.38427, 9.30438 ], [ 1.41307, 9.32502 ], [ 1.40306, 9.35505 ], [ 1.39826, 9.45395 ], [ 1.37584, 9.46116 ], [ 1.34821, 9.45315 ] ] ] } },
{ "type": "Feature", "properties": { "pcode": "TG0202", "prefecture": "Bassar", "region": "Kara", "superficie_km2": 3454.4 }, "geometry": { "type": "Polygon", "coordinates": [ [ [ 0.874, 9.66121 ], [ 0.87064, 9.6645 ], [ 0.85551, 9.64311 ], [ 0.83169, 9.62937 ], [ 0.81981, 9.65061 ], [ 0.81217, 9.65086 ], [ 0.79796, 9.63139 ], [ 0.79781, 9.60746 ], [ 0.7918, 9.59198 ], [ 0.78485, 9.58224 ], [ 0.77601, 9.58006 ], [ 0.75999, 9.60359 ], [ 0.72955, 9.60236 ], [ 0.73045, 9.61667 ], [ 0.73845, 9.6286 ], [ 0.70982, 9.64288 ], [ 0.70499, 9.61382 ], [ 0.68742, 9.59402 ], [ 0.67871, 9.56014 ], [ 0.66494, 9.55664 ], [ 0.65462, 9.54859 ], [ 0.67187, 9.52776 ], [ 0.67765, 9.50492 ], [ 0.69909, 9.48386 ], [ 0.68498, 9.47601 ], [ 0.64427, 9.47065 ], [ 0.58246, 9.48065 ], [ 0.55907, 9.47589 ], [ 0.55026, 9.46177 ], [ 0.53922, 9.42919 ], [ 0.54783, 9.42521 ], [ 0.56228, 9.40402 ], [ 0.56387, 9.38369 ], [ 0.5564, 9.35855 ], [ 0.54366, 9.34143 ], [ 0.5481, 9.3197 ], [ 0.54483, 9.31021 ], [ 0.53488, 9.30304 ], [ 0.50844, 9.26927 ], [ 0.5029, 9.24462 ], [ 0.52651, 9.20457 ], [ 0.5147, 9.19124 ], [ 0.50014, 9.16227 ], [ 0.47073, 9.14693 ], [ 0.46886, 9.14171 ], [ 0.47623, 9.10911 ], [ 0.47322, 9.10041 ], [ 0.4602, 9.08818 ], [ 0.45289, 9.04366 ], [ 0.45396, 9.02711 ], [ 0.46074, 9.01059 ], [ 0.51609, 8.9206 ], [ 0.5167, 8.89978 ], [ 0.5268, 8.88423 ], [ 0.52689, 8.87051 ], [ 0.51928, 8.86999 ], [ 0.51748, 8.85436 ], [ 0.50378, 8.84102 ], [ 0.53939, 8.85119 ], [ 0.54992, 8.87116 ], [ 0.55993, 8.87867 ], [ 0.58295, 8.87666 ], [ 0.5909, 8.87945 ], [ 0.59098, 8.89128 ], [ 0.57904, 8.8983 ], [ 0.57804, 8.90586 ], [ 0.58417, 8.91537 ], [ 0.61358, 8.92833 ], [ 0.63202, 8.94738 ], [ 0.63381, 8.9649 ], [ 0.64227, 8.98152 ], [ 0.66504, 8.9828 ], [ 0.68505, 9.0128 ], [ 0.70966, 9.01365 ], [ 0.72234, 9.04023 ], [ 0.73464, 9.05308 ], [ 0.74706, 9.04559 ], [ 0.75659, 9.0447 ], [ 0.77367, 9.05379 ], [ 0.78036, 9.05005 ], [ 0.78575, 9.02547 ], [ 0.86633, 9.0037 ], [ 0.94961, 9.01553 ], [ 0.96656, 9.0268 ], [ 0.98362, 9.05249 ], [ 0.99289, 9.05428 ], [ 1.00216, 9.06316 ], [ 1.00114, 9.07498 ], [ 0.98763, 9.10757 ], [ 0.98534, 9.17571 ], [ 0.9933, 9.20037 ], [ 1.02465, 9.21711 ], [ 1.03311, 9.23798 ], [ 1.03346, 9.25976 ], [ 1.02617, 9.28575 ], [ 1.00994, 9.29087 ], [ 0.98897, 9.31387 ], [ 0.98433, 9.31373 ], [ 0.97373, 9.33184 ], [ 0.95749, 9.33837 ], [ 0.95413, 9.37085 ], [ 0.95773, 9.38607 ], [ 0.97135, 9.40329 ], [ 0.98383, 9.45176 ], [ 0.97895, 9.45214 ], [ 0.97575, 9.45894 ], [ 0.98816, 9.48537 ], [ 0.98456, 9.48937 ], [ 0.98696, 9.49618 ], [ 0.98176, 9.50139 ], [ 0.99017, 9.5178 ], [ 0.99777, 9.52101 ], [ 1.00698, 9.53502 ], [ 1.01059, 9.56906 ], [ 1.00778, 9.59348 ], [ 0.97455, 9.60549 ], [ 0.95893, 9.62271 ], [ 0.93931, 9.62391 ], [ 0.93005, 9.6199 ], [ 0.91328, 9.63353 ], [ 0.91691, 9.6455 ], [ 0.91267, 9.65435 ], [ 0.89593, 9.66277 ], [ 0.874, 9.66121 ] ] ] } },
{ "type": "Feature", "properties": { "pcode": "TG0203", "prefecture": "Binah", "region": "Kara", "superficie_km2": 580.8 }, "geometry": { "type": "Polygon", "coordinates": [ [ [ 1.36391, 9.88579 ], [ 1.36615, 10.00226 ], [ 1.36411, 10.01214 ], [ 1.34156, 10.02498 ], [ 1.30102, 9.98 ], [ 1.28047, 9.87817 ], [ 1.27541, 9.87275 ], [ 1.28708, 9.86237 ], [ 1.28421, 9.85659 ], [ 1.27697, 9.8526 ], [ 1.25399, 9.87244 ], [ 1.21327, 9.81951 ], [ 1.20863, 9.80365 ], [ 1.18844, 9.78087 ], [ 1.19782, 9.75176 ], [ 1.22127, 9.73827 ], [ 1.23166, 9.71703 ], [ 1.24174, 9.71647 ], [ 1.24268, 9.71102 ], [ 1.26244, 9.69238 ], [ 1.29688, 9.67677 ], [ 1.30569, 9.66355 ], [ 1.30409, 9.63232 ], [ 1.30729, 9.62391 ], [ 1.3161, 9.6111 ], [ 1.33041, 9.606 ], [ 1.33051, 9.60014 ], [ 1.32491, 9.59869 ], [ 1.29608, 9.59909 ], [ 1.27085, 9.53822 ], [ 1.36095, 9.48657 ], [ 1.35934, 9.50779 ], [ 1.34253, 9.54583 ], [ 1.36655, 9.6115 ], [ 1.36975, 9.66155 ], [ 1.36335, 9.69719 ], [ 1.36675, 9.75082 ], [ 1.36391, 9.88579 ] ] ] } },
{ "type": "Feature", "properties": { "pcode": "TG0204", "prefecture": "Dankpen", "region": "Kara", "superficie_km2": 2540.9 }, "geometry": { "type": "Polygon", "coordinates": [ [ [ 0.39099, 10.02367 ], [ 0.37411, 10.02454 ], [ 0.36271, 10.03046 ], [ 0.35329, 10.02871 ], [ 0.35745, 10.00789 ], [ 0.35351, 9.9772 ], [ 0.38068, 9.94454 ], [ 0.38266, 9.93709 ], [ 0.37455, 9.92766 ], [ 0.35723, 9.9235 ], [ 0.3489, 9.91057 ], [ 0.34627, 9.88361 ], [ 0.35257, 9.84091 ], [ 0.34934, 9.8275 ], [ 0.32633, 9.78563 ], [ 0.33071, 9.77336 ], [ 0.32107, 9.76525 ], [ 0.32435, 9.75341 ], [ 0.31471, 9.72448 ], [ 0.32085, 9.71813 ], [ 0.33334, 9.71747 ], [ 0.33838, 9.71221 ], [ 0.34386, 9.70103 ], [ 0.34726, 9.67133 ], [ 0.36194, 9.66212 ], [ 0.36618, 9.65144 ], [ 0.3596, 9.62289 ], [ 0.37714, 9.58904 ], [ 0.37612, 9.58493 ], [ 0.37132, 9.57774 ], [ 0.35146, 9.56849 ], [ 0.32475, 9.57466 ], [ 0.28296, 9.57329 ], [ 0.25694, 9.56267 ], [ 0.24598, 9.5702 ], [ 0.2381, 9.57055 ], [ 0.22988, 9.54178 ], [ 0.23673, 9.5202 ], [ 0.24495, 9.51575 ], [ 0.28776, 9.51712 ], [ 0.30557, 9.50308 ], [ 0.30488, 9.49794 ], [ 0.28981, 9.48561 ], [ 0.27611, 9.48321 ], [ 0.26276, 9.47226 ], [ 0.24769, 9.47397 ], [ 0.23502, 9.48048 ], [ 0.22577, 9.47808 ], [ 0.22714, 9.45513 ], [ 0.24358, 9.43869 ], [ 0.24529, 9.42979 ], [ 0.27235, 9.42226 ], [ 0.33125, 9.4452 ], [ 0.34427, 9.46815 ], [ 0.34084, 9.48287 ], [ 0.35386, 9.49143 ], [ 0.38125, 9.48904 ], [ 0.38571, 9.48527 ], [ 0.42372, 9.49623 ], [ 0.43365, 9.49143 ], [ 0.44769, 9.49383 ], [ 0.48434, 9.47842 ], [ 0.50294, 9.45999 ], [ 0.49966, 9.44107 ], [ 0.51819, 9.44313 ], [ 0.52925, 9.43183 ], [ 0.53879, 9.4285 ], [ 0.55026, 9.46177 ], [ 0.55907, 9.47589 ], [ 0.58246, 9.48065 ], [ 0.64427, 9.47065 ], [ 0.68768, 9.47716 ], [ 0.69911, 9.4842 ], [ 0.67765, 9.50492 ], [ 0.67187, 9.52776 ], [ 0.65462, 9.54859 ], [ 0.66494, 9.55664 ], [ 0.67871, 9.56014 ], [ 0.68742, 9.59402 ], [ 0.70499, 9.61382 ], [ 0.70982, 9.64288 ], [ 0.73845, 9.6286 ], [ 0.73045, 9.61667 ], [ 0.72955, 9.60236 ], [ 0.75999, 9.60359 ], [ 0.77601, 9.58006 ], [ 0.78485, 9.58224 ], [ 0.7918, 9.59198 ], [ 0.79781, 9.60746 ], [ 0.79796, 9.63139 ], [ 0.81217, 9.65086 ], [ 0.81981, 9.65061 ], [ 0.83169, 9.62937 ], [ 0.85551, 9.64311 ], [ 0.87869, 9.67354 ], [ 0.86422, 9.69901 ], [ 0.86447, 9.71629 ], [ 0.87167, 9.7284 ], [ 0.86825, 9.74021 ], [ 0.85964, 9.74442 ], [ 0.8567, 9.75623 ], [ 0.86148, 9.77141 ], [ 0.85812, 9.7865 ], [ 0.86091, 9.80487 ], [ 0.85541, 9.81312 ], [ 0.84522, 9.81809 ], [ 0.83677, 9.83495 ], [ 0.8487, 9.85245 ], [ 0.84428, 9.86143 ], [ 0.8497, 9.87703 ], [ 0.84057, 9.88347 ], [ 0.83199, 9.87328 ], [ 0.81642, 9.87274 ], [ 0.80536, 9.88586 ], [ 0.7697, 9.88974 ], [ 0.7657, 9.87837 ], [ 0.75711, 9.86979 ], [ 0.75443, 9.85583 ], [ 0.74262, 9.84563 ], [ 0.73403, 9.84456 ], [ 0.71741, 9.85136 ], [ 0.70669, 9.84783 ], [ 0.6883, 9.85073 ], [ 0.68223, 9.85846 ], [ 0.67676, 9.88101 ], [ 0.66599, 9.8828 ], [ 0.65905, 9.87703 ], [ 0.65422, 9.87791 ], [ 0.64129, 9.89457 ], [ 0.63406, 9.89369 ], [ 0.62617, 9.88352 ], [ 0.60063, 9.8892 ], [ 0.58792, 9.88591 ], [ 0.58457, 9.88109 ], [ 0.57055, 9.88498 ], [ 0.52408, 9.90154 ], [ 0.51856, 9.90822 ], [ 0.51507, 9.92478 ], [ 0.52698, 9.94336 ], [ 0.51972, 9.9515 ], [ 0.51391, 9.95034 ], [ 0.50636, 9.94133 ], [ 0.49939, 9.94162 ], [ 0.48603, 9.95353 ], [ 0.46541, 9.94394 ], [ 0.45611, 9.94714 ], [ 0.44711, 9.95644 ], [ 0.42619, 9.95847 ], [ 0.41806, 9.97619 ], [ 0.42242, 9.9942 ], [ 0.41545, 10.00901 ], [ 0.40786, 10.02219 ], [ 0.40019, 10.01665 ], [ 0.39099, 10.02367 ] ] ] } },
{ "type": "Feature", "properties": { "pcode": "TG0205", "prefecture": "Doufelgou", "region": "Kara", "superficie_km2": 1157.5 }, "geometry": { "type": "Polygon", "coordinates": [ [ [ 1.30102, 9.98 ], [ 1.34156, 10.02498 ], [ 1.31098, 10.04241 ], [ 1.26734, 10.01723 ], [ 1.26029, 10.01016 ], [ 1.2535, 9.99238 ], [ 1.23804, 9.98465 ], [ 1.21711, 9.98143 ], [ 1.20154, 9.9825 ], [ 1.18812, 9.99217 ], [ 1.15914, 9.99914 ], [ 1.13981, 9.97284 ], [ 1.13085, 9.94317 ], [ 1.08382, 9.92606 ], [ 1.0578, 9.90719 ], [ 1.04546, 9.88964 ], [ 1.036, 9.89175 ], [ 1.03469, 9.8736 ], [ 1.02391, 9.85594 ], [ 1.01019, 9.86361 ], [ 0.99806, 9.86437 ], [ 0.97851, 9.85178 ], [ 0.95115, 9.84644 ], [ 0.92968, 9.85878 ], [ 0.91035, 9.85288 ], [ 0.89715, 9.86772 ], [ 0.86447, 9.87111 ], [ 0.83677, 9.83495 ], [ 0.84522, 9.81809 ], [ 0.85541, 9.81312 ], [ 0.86091, 9.80487 ], [ 0.85812, 9.7865 ], [ 0.86148, 9.77141 ], [ 0.8567, 9.75623 ], [ 0.85964, 9.74442 ], [ 0.86825, 9.74021 ], [ 0.87167, 9.7284 ], [ 0.86447, 9.71629 ], [ 0.86422, 9.69901 ], [ 0.87869, 9.67354 ], [ 0.87064, 9.6645 ], [ 0.88259, 9.66032 ], [ 0.89593, 9.66277 ], [ 0.91267, 9.65435 ], [ 0.91559, 9.64537 ], [ 0.9461, 9.64745 ], [ 0.98158, 9.63923 ], [ 1.00175, 9.63955 ], [ 1.03635, 9.64563 ], [ 1.05717, 9.66229 ], [ 1.09369, 9.66101 ], [ 1.11163, 9.67414 ], [ 1.13117, 9.69625 ], [ 1.15698, 9.69548 ], [ 1.17195, 9.72241 ], [ 1.19803, 9.75141 ], [ 1.18844, 9.78087 ], [ 1.20863, 9.80365 ], [ 1.21327, 9.81951 ], [ 1.25399, 9.87244 ], [ 1.27697, 9.8526 ], [ 1.28421, 9.85659 ], [ 1.28708, 9.86237 ], [ 1.27541, 9.87275 ], [ 1.28047, 9.87817 ], [ 1.30102, 9.98 ] ] ] } },
{ "type": "Feature", "properties": { "pcode": "TG0206", "prefecture": "Kéran", "region": "Kara", "superficie_km2": 2018.0 }, "geometry": { "type": "Polygon", "coordinates": [ [ [ 0.99677, 10.21519 ], [ 0.90166, 10.28999 ], [ 0.87699, 10.2547 ], [ 0.83925, 10.22745 ], [ 0.82248, 10.16874 ], [ 0.81417, 10.15476 ], [ 0.80376, 10.15368 ], [ 0.79408, 10.17198 ], [ 0.78116, 10.17951 ], [ 0.76789, 10.17485 ], [ 0.75425, 10.18238 ], [ 0.73308, 10.16839 ], [ 0.74277, 10.14507 ], [ 0.74026, 10.14005 ], [ 0.70474, 10.16803 ], [ 0.69799, 10.16711 ], [ 0.68371, 10.14359 ], [ 0.67571, 10.14132 ], [ 0.67223, 10.11116 ], [ 0.68669, 10.08206 ], [ 0.68697, 10.0532 ], [ 0.67845, 10.03836 ], [ 0.67295, 10.01583 ], [ 0.64352, 9.989 ], [ 0.67772, 9.98281 ], [ 0.67465, 9.95974 ], [ 0.66663, 9.95679 ], [ 0.66887, 9.94882 ], [ 0.65607, 9.93176 ], [ 0.67775, 9.90746 ], [ 0.68286, 9.88747 ], [ 0.68092, 9.86524 ], [ 0.6883, 9.85073 ], [ 0.70669, 9.84783 ], [ 0.71741, 9.85136 ], [ 0.73403, 9.84456 ], [ 0.74262, 9.84563 ], [ 0.75443, 9.85583 ], [ 0.75711, 9.86979 ], [ 0.7657, 9.87837 ], [ 0.7697, 9.88974 ], [ 0.80536, 9.88586 ], [ 0.81642, 9.87274 ], [ 0.83199, 9.87328 ], [ 0.84057, 9.88347 ], [ 0.84648, 9.88133 ], [ 0.8497, 9.87703 ], [ 0.84428, 9.86143 ], [ 0.84916, 9.85181 ], [ 0.85798, 9.86567 ], [ 0.86774, 9.87149 ], [ 0.89715, 9.86772 ], [ 0.91035, 9.85288 ], [ 0.92968, 9.85878 ], [ 0.95115, 9.84644 ], [ 0.97851, 9.85178 ], [ 0.99806, 9.86437 ], [ 1.01019, 9.86361 ], [ 1.02391, 9.85594 ], [ 1.03469, 9.8736 ], [ 1.036, 9.89175 ], [ 1.04546, 9.88964 ], [ 1.0578, 9.90719 ], [ 1.08382, 9.92606 ], [ 1.13085, 9.94317 ], [ 1.13981, 9.97284 ], [ 1.15914, 9.99914 ], [ 1.18812, 9.99217 ], [ 1.20154, 9.9825 ], [ 1.23804, 9.98465 ], [ 1.2535, 9.99238 ], [ 1.26029, 10.01016 ], [ 1.26734, 10.01723 ], [ 1.31098, 10.04241 ], [ 0.99999, 10.22002 ], [ 0.99677, 10.21519 ] ] ] } },
{ "type": "Feature", "properties": { "pcode": "TG0207", "prefecture": "Kozah", "region": "Kara", "superficie_km2": 1085.7 }, "geometry": { "type": "Polygon", "coordinates": [ [ [ 1.25884, 9.69679 ], [ 1.24268, 9.71102 ], [ 1.24174, 9.71647 ], [ 1.23166, 9.71703 ], [ 1.22127, 9.73827 ], [ 1.19782, 9.75176 ], [ 1.17195, 9.72241 ], [ 1.15698, 9.69548 ], [ 1.13117, 9.69625 ], [ 1.11163, 9.67414 ], [ 1.09369, 9.66101 ], [ 1.05717, 9.66229 ], [ 1.03635, 9.64563 ], [ 1.00175, 9.63955 ], [ 0.98158, 9.63923 ], [ 0.9461, 9.64745 ], [ 0.91691, 9.6455 ], [ 0.91328, 9.63353 ], [ 0.93005, 9.6199 ], [ 0.93931, 9.62391 ], [ 0.95893, 9.62271 ], [ 0.97455, 9.60549 ], [ 1.00778, 9.59348 ], [ 1.01059, 9.56906 ], [ 1.00698, 9.53502 ], [ 0.98416, 9.50819 ], [ 0.98176, 9.50139 ], [ 0.98696, 9.49618 ], [ 0.98456, 9.48937 ], [ 0.98816, 9.48537 ], [ 0.97575, 9.45894 ], [ 0.97895, 9.45214 ], [ 0.98416, 9.45254 ], [ 1.01099, 9.4121 ], [ 1.03101, 9.40569 ], [ 1.05019, 9.40954 ], [ 1.06704, 9.39087 ], [ 1.08026, 9.36645 ], [ 1.09347, 9.36284 ], [ 1.10228, 9.39127 ], [ 1.11939, 9.40522 ], [ 1.13191, 9.4121 ], [ 1.15903, 9.40928 ], [ 1.16652, 9.41616 ], [ 1.19157, 9.42211 ], [ 1.21319, 9.44453 ], [ 1.22961, 9.44413 ], [ 1.29324, 9.42927 ], [ 1.32805, 9.43859 ], [ 1.33019, 9.46156 ], [ 1.33419, 9.46276 ], [ 1.34821, 9.45315 ], [ 1.37584, 9.46116 ], [ 1.39821, 9.45398 ], [ 1.38977, 9.49717 ], [ 1.36095, 9.48657 ], [ 1.27085, 9.53822 ], [ 1.29608, 9.59909 ], [ 1.32491, 9.59869 ], [ 1.33051, 9.60014 ], [ 1.33041, 9.606 ], [ 1.3161, 9.6111 ], [ 1.30729, 9.62391 ], [ 1.30409, 9.63232 ], [ 1.30569, 9.66355 ], [ 1.29688, 9.67677 ], [ 1.25884, 9.69679 ] ] ] } },
{ "type": "Feature", "properties": { "pcode": "TG0301", "prefecture": "Avé", "region": "Maritime", "superficie_km2": 1049.3 }, "geometry": { "type": "Polygon", "coordinates": [ [ [ 0.90662, 6.70284 ], [ 0.8801, 6.70151 ], [ 0.87431, 6.69466 ], [ 0.8662, 6.6555 ], [ 0.85492, 6.6295 ], [ 0.8414, 6.61267 ], [ 0.83002, 6.5704 ], [ 0.82022, 6.554 ], [ 0.79573, 6.55064 ], [ 0.76392, 6.52606 ], [ 0.75239, 6.52727 ], [ 0.71884, 6.5177 ], [ 0.72447, 6.48739 ], [ 0.74133, 6.46166 ], [ 0.74856, 6.44109 ], [ 0.75684, 6.43152 ], [ 0.7626, 6.43182 ], [ 0.78243, 6.41571 ], [ 0.78886, 6.39883 ], [ 0.82373, 6.39415 ], [ 0.84306, 6.38672 ], [ 0.86996, 6.36485 ], [ 0.90391, 6.32101 ], [ 0.9961, 6.32405 ], [ 1.02562, 6.24348 ], [ 1.0583, 6.22025 ], [ 1.08475, 6.17284 ], [ 1.08521, 6.1824 ], [ 1.09103, 6.18989 ], [ 1.09071, 6.22344 ], [ 1.10425, 6.24435 ], [ 1.07573, 6.29024 ], [ 1.06717, 6.27891 ], [ 1.05095, 6.29615 ], [ 1.04632, 6.32653 ], [ 1.0673, 6.32899 ], [ 1.07808, 6.38781 ], [ 1.07384, 6.40351 ], [ 1.07835, 6.4507 ], [ 1.06591, 6.4632 ], [ 1.06039, 6.48256 ], [ 1.05037, 6.49934 ], [ 1.0225, 6.5164 ], [ 1.01422, 6.52838 ], [ 1.00675, 6.52983 ], [ 0.99559, 6.55819 ], [ 0.98749, 6.56692 ], [ 0.99126, 6.61279 ], [ 0.97996, 6.63493 ], [ 0.95292, 6.63988 ], [ 0.94667, 6.66182 ], [ 0.93268, 6.67286 ], [ 0.93064, 6.68559 ], [ 0.90662, 6.70284 ] ] ] } },
{ "type": "Feature", "properties": { "pcode": "TG0302", "prefecture": "Bas-Mono", "region": "Maritime", "superficie_km2": 329.5 }, "geometry": { "type": "Polygon", "coordinates": [ [ [ 1.67571, 6.57961 ], [ 1.6702, 6.58553 ], [ 1.65615, 6.5778 ], [ 1.64104, 6.58308 ], [ 1.62579, 6.57555 ], [ 1.59204, 6.57422 ], [ 1.57053, 6.56785 ], [ 1.55491, 6.56038 ], [ 1.5645, 6.55174 ], [ 1.55167, 6.53311 ], [ 1.55301, 6.5285 ], [ 1.56356, 6.52458 ], [ 1.57285, 6.50394 ], [ 1.58253, 6.50046 ], [ 1.57752, 6.48484 ], [ 1.57865, 6.47166 ], [ 1.57167, 6.45384 ], [ 1.57454, 6.45099 ], [ 1.58662, 6.45212 ], [ 1.58467, 6.44025 ], [ 1.58795, 6.44685 ], [ 1.5917, 6.4429 ], [ 1.58404, 6.43058 ], [ 1.59547, 6.43039 ], [ 1.59727, 6.44942 ], [ 1.60676, 6.45051 ], [ 1.6077, 6.44383 ], [ 1.59942, 6.43643 ], [ 1.61275, 6.43374 ], [ 1.62649, 6.40259 ], [ 1.62629, 6.38227 ], [ 1.63195, 6.3645 ], [ 1.65238, 6.35633 ], [ 1.65002, 6.37026 ], [ 1.66415, 6.38461 ], [ 1.6867, 6.39127 ], [ 1.69513, 6.39079 ], [ 1.69731, 6.38697 ], [ 1.70288, 6.38913 ], [ 1.7063, 6.39687 ], [ 1.72217, 6.39862 ], [ 1.73072, 6.40809 ], [ 1.75563, 6.40257 ], [ 1.76085, 6.42433 ], [ 1.76674, 6.42303 ], [ 1.76785, 6.41819 ], [ 1.77752, 6.41756 ], [ 1.78059, 6.4213 ], [ 1.78079, 6.4268 ], [ 1.77639, 6.42942 ], [ 1.77267, 6.4259 ], [ 1.76475, 6.4272 ], [ 1.75771, 6.43355 ], [ 1.75303, 6.4597 ], [ 1.74069, 6.47483 ], [ 1.73387, 6.47635 ], [ 1.7376, 6.48098 ], [ 1.73033, 6.48755 ], [ 1.7259, 6.50183 ], [ 1.71954, 6.49544 ], [ 1.7125, 6.50025 ], [ 1.70591, 6.4976 ], [ 1.69558, 6.50043 ], [ 1.69424, 6.50966 ], [ 1.70236, 6.51297 ], [ 1.70186, 6.53627 ], [ 1.69569, 6.54285 ], [ 1.69853, 6.54813 ], [ 1.69632, 6.5534 ], [ 1.68775, 6.55359 ], [ 1.684, 6.56062 ], [ 1.6739, 6.5562 ], [ 1.6684, 6.55794 ], [ 1.66641, 6.56343 ], [ 1.67571, 6.57961 ] ] ] } },
{ "type": "Feature", "properties": { "pcode": "TG0303", "prefecture": "Golfe", "region": "Maritime", "superficie_km2": 240.7 }, "geometry": { "type": "Polygon", "coordinates": [ [ [ 1.19012, 6.2055 ], [ 1.20027, 6.19819 ], [ 1.20428, 6.20634 ], [ 1.20856, 6.20078 ], [ 1.24375, 6.20942 ], [ 1.25012, 6.21948 ], [ 1.24157, 6.22739 ], [ 1.24829, 6.23322 ], [ 1.25316, 6.25678 ], [ 1.27001, 6.25014 ], [ 1.28142, 6.23702 ], [ 1.28215, 6.20113 ], [ 1.28983, 6.19014 ], [ 1.30101, 6.19094 ], [ 1.34335, 6.20729 ], [ 1.39727, 6.21439 ], [ 1.39325, 6.20328 ], [ 1.38266, 6.19807 ], [ 1.38017, 6.18135 ], [ 1.38929, 6.17415 ], [ 1.28686, 6.14237 ], [ 1.2037, 6.10997 ], [ 1.19177, 6.10931 ], [ 1.19165, 6.15502 ], [ 1.10657, 6.15694 ], [ 1.08588, 6.16247 ], [ 1.08521, 6.1824 ], [ 1.09103, 6.18989 ], [ 1.09071, 6.22344 ], [ 1.12145, 6.22389 ], [ 1.12945, 6.21685 ], [ 1.15556, 6.21264 ], [ 1.16536, 6.20424 ], [ 1.1664, 6.20921 ], [ 1.17355, 6.20574 ], [ 1.17695, 6.21169 ], [ 1.18406, 6.20334 ], [ 1.19012, 6.2055 ] ] ] } },
{ "type": "Feature", "properties": { "pcode": "TG0304", "prefecture": "Lacs", "region": "Maritime", "superficie_km2": 416.4 }, "geometry": { "type": "Polygon", "coordinates": [ [ [ 1.76785, 6.41819 ], [ 1.76674, 6.42303 ], [ 1.76085, 6.42433 ], [ 1.75563, 6.40257 ], [ 1.73072, 6.40809 ], [ 1.72217, 6.39862 ], [ 1.7063, 6.39687 ], [ 1.70288, 6.38913 ], [ 1.69731, 6.38697 ], [ 1.69513, 6.39079 ], [ 1.6867, 6.39127 ], [ 1.66415, 6.38461 ], [ 1.65002, 6.37026 ], [ 1.65238, 6.35633 ], [ 1.63367, 6.36315 ], [ 1.62951, 6.3722 ], [ 1.62007, 6.37208 ], [ 1.60713, 6.38193 ], [ 1.60541, 6.34986 ], [ 1.59653, 6.35107 ], [ 1.59431, 6.33959 ], [ 1.60112, 6.29801 ], [ 1.57522, 6.29561 ], [ 1.55979, 6.28203 ], [ 1.5651, 6.2794 ], [ 1.5778, 6.25553 ], [ 1.58301, 6.25582 ], [ 1.58503, 6.23056 ], [ 1.53409, 6.22638 ], [ 1.5272, 6.23278 ], [ 1.48622, 6.22338 ], [ 1.47352, 6.21232 ], [ 1.40536, 6.25134 ], [ 1.39709, 6.21144 ], [ 1.39325, 6.20328 ], [ 1.38266, 6.19807 ], [ 1.38211, 6.17668 ], [ 1.38929, 6.17415 ], [ 1.46878, 6.18805 ], [ 1.50048, 6.19887 ], [ 1.54207, 6.20499 ], [ 1.55835, 6.21276 ], [ 1.60695, 6.21967 ], [ 1.62766, 6.2257 ], [ 1.62938, 6.24241 ], [ 1.64816, 6.24844 ], [ 1.6682, 6.24761 ], [ 1.68065, 6.25432 ], [ 1.7099, 6.25677 ], [ 1.74923, 6.27128 ], [ 1.76416, 6.27184 ], [ 1.77029, 6.28188 ], [ 1.79998, 6.28089 ], [ 1.80718, 6.28443 ], [ 1.8055, 6.29101 ], [ 1.79565, 6.29363 ], [ 1.78965, 6.30276 ], [ 1.7979, 6.30682 ], [ 1.79842, 6.31351 ], [ 1.79241, 6.32879 ], [ 1.78272, 6.33914 ], [ 1.78937, 6.34988 ], [ 1.78193, 6.37395 ], [ 1.77242, 6.38026 ], [ 1.77082, 6.39168 ], [ 1.77432, 6.39415 ], [ 1.76922, 6.39924 ], [ 1.76954, 6.41155 ], [ 1.77534, 6.41279 ], [ 1.77563, 6.41755 ], [ 1.76785, 6.41819 ] ] ] } },
{ "type": "Feature", "properties": { "pcode": "TG0306", "prefecture": "Vo", "region": "Maritime", "superficie_km2": 755.4 }, "geometry": { "type": "Polygon", "coordinates": [ [ [ 1.5159, 6.55496 ], [ 1.50917, 6.56515 ], [ 1.51152, 6.57411 ], [ 1.50389, 6.57808 ], [ 1.4924, 6.56769 ], [ 1.49547, 6.53657 ], [ 1.46613, 6.53533 ], [ 1.44769, 6.52435 ], [ 1.414, 6.4838 ], [ 1.39301, 6.47215 ], [ 1.38447, 6.45967 ], [ 1.3845, 6.45152 ], [ 1.3888, 6.44724 ], [ 1.38284, 6.43391 ], [ 1.36663, 6.42316 ], [ 1.38006, 6.36352 ], [ 1.38577, 6.30384 ], [ 1.40421, 6.26812 ], [ 1.40536, 6.25134 ], [ 1.47352, 6.21232 ], [ 1.48622, 6.22338 ], [ 1.5272, 6.23278 ], [ 1.53409, 6.22638 ], [ 1.58503, 6.23056 ], [ 1.58301, 6.25582 ], [ 1.5778, 6.25553 ], [ 1.5651, 6.2794 ], [ 1.55979, 6.28203 ], [ 1.57522, 6.29561 ], [ 1.60112, 6.29801 ], [ 1.59431, 6.33959 ], [ 1.59653, 6.35107 ], [ 1.60541, 6.34986 ], [ 1.60713, 6.38193 ], [ 1.62007, 6.37208 ], [ 1.62951, 6.3722 ], [ 1.62649, 6.40259 ], [ 1.61275, 6.43374 ], [ 1.59942, 6.43643 ], [ 1.6077, 6.44383 ], [ 1.60689, 6.45036 ], [ 1.59727, 6.44942 ], [ 1.59327, 6.42928 ], [ 1.58338, 6.43233 ], [ 1.5917, 6.4429 ], [ 1.58795, 6.44685 ], [ 1.58665, 6.44201 ], [ 1.58269, 6.442 ], [ 1.58662, 6.45212 ], [ 1.57454, 6.45099 ], [ 1.57167, 6.45384 ], [ 1.57865, 6.47166 ], [ 1.57752, 6.48484 ], [ 1.58253, 6.50046 ], [ 1.57285, 6.50394 ], [ 1.56356, 6.52458 ], [ 1.55301, 6.5285 ], [ 1.5532, 6.53773 ], [ 1.5645, 6.55174 ], [ 1.55517, 6.56052 ], [ 1.54328, 6.55496 ], [ 1.53798, 6.56426 ], [ 1.53343, 6.56362 ], [ 1.53546, 6.56125 ], [ 1.52944, 6.55391 ], [ 1.5159, 6.55496 ] ] ] } },
{ "type": "Feature", "properties": { "pcode": "TG0307", "prefecture": "Yoto", "region": "Maritime", "superficie_km2": 1261.1 }, "geometry": { "type": "Polygon", "coordinates": [ [ [ 1.59956, 6.83186 ], [ 1.6019, 6.85281 ], [ 1.59465, 6.86756 ], [ 1.60663, 6.88339 ], [ 1.60519, 6.90605 ], [ 1.58248, 6.91594 ], [ 1.57669, 6.92209 ], [ 1.5777, 6.90886 ], [ 1.55661, 6.90183 ], [ 1.53201, 6.85865 ], [ 1.51946, 6.84761 ], [ 1.49937, 6.83656 ], [ 1.47076, 6.83003 ], [ 1.41037, 6.84366 ], [ 1.40523, 6.83681 ], [ 1.35101, 6.81874 ], [ 1.285, 6.76911 ], [ 1.27567, 6.75667 ], [ 1.27727, 6.74929 ], [ 1.26604, 6.74751 ], [ 1.25517, 6.73949 ], [ 1.24569, 6.71943 ], [ 1.24832, 6.70529 ], [ 1.25693, 6.69673 ], [ 1.29991, 6.68272 ], [ 1.30293, 6.67758 ], [ 1.30048, 6.64067 ], [ 1.29323, 6.62691 ], [ 1.29785, 6.62335 ], [ 1.29072, 6.58747 ], [ 1.29719, 6.57676 ], [ 1.30681, 6.52358 ], [ 1.31841, 6.51933 ], [ 1.34385, 6.48336 ], [ 1.34739, 6.4499 ], [ 1.36663, 6.42316 ], [ 1.38284, 6.43391 ], [ 1.3888, 6.44724 ], [ 1.3845, 6.45152 ], [ 1.38447, 6.45967 ], [ 1.39301, 6.47215 ], [ 1.414, 6.4838 ], [ 1.44769, 6.52435 ], [ 1.46613, 6.53533 ], [ 1.49547, 6.53657 ], [ 1.4924, 6.56769 ], [ 1.50389, 6.57808 ], [ 1.51152, 6.57411 ], [ 1.50917, 6.56515 ], [ 1.51381, 6.55707 ], [ 1.52627, 6.55355 ], [ 1.53569, 6.56426 ], [ 1.54521, 6.55461 ], [ 1.5657, 6.56603 ], [ 1.59204, 6.57422 ], [ 1.62579, 6.57555 ], [ 1.64108, 6.58293 ], [ 1.63663, 6.6005 ], [ 1.6218, 6.60128 ], [ 1.61243, 6.61087 ], [ 1.61019, 6.62488 ], [ 1.60303, 6.63035 ], [ 1.60301, 6.63694 ], [ 1.61152, 6.64163 ], [ 1.60376, 6.66634 ], [ 1.59356, 6.67537 ], [ 1.59024, 6.68415 ], [ 1.57379, 6.68885 ], [ 1.59215, 6.70621 ], [ 1.59292, 6.72599 ], [ 1.60006, 6.72601 ], [ 1.61953, 6.74145 ], [ 1.61813, 6.75079 ], [ 1.62588, 6.75983 ], [ 1.60833, 6.77042 ], [ 1.61342, 6.79138 ], [ 1.61134, 6.79824 ], [ 1.59862, 6.80061 ], [ 1.59689, 6.80644 ], [ 1.59893, 6.81263 ], [ 1.61504, 6.82538 ], [ 1.61331, 6.82881 ], [ 1.6037, 6.82707 ], [ 1.59956, 6.83186 ] ] ] } },
{ "type": "Feature", "properties": { "pcode": "TG0308", "prefecture": "Zio", "region": "Maritime", "superficie_km2": 2163.5 }, "geometry": { "type": "Polygon", "coordinates": [ [ [ 1.133, 6.80479 ], [ 1.10473, 6.80945 ], [ 1.09514, 6.81848 ], [ 1.09246, 6.82792 ], [ 1.06003, 6.85811 ], [ 1.03348, 6.87107 ], [ 1.01812, 6.86469 ], [ 0.9602, 6.8558 ], [ 0.96406, 6.81715 ], [ 0.96116, 6.81168 ], [ 0.93739, 6.80012 ], [ 0.89698, 6.76999 ], [ 0.90099, 6.74346 ], [ 0.90008, 6.70301 ], [ 0.90662, 6.70284 ], [ 0.93064, 6.68559 ], [ 0.93268, 6.67286 ], [ 0.94667, 6.66182 ], [ 0.95292, 6.63988 ], [ 0.97996, 6.63493 ], [ 0.99126, 6.61279 ], [ 0.98749, 6.56692 ], [ 0.99559, 6.55819 ], [ 1.00675, 6.52983 ], [ 1.01422, 6.52838 ], [ 1.0225, 6.5164 ], [ 1.05037, 6.49934 ], [ 1.06039, 6.48256 ], [ 1.06591, 6.4632 ], [ 1.07835, 6.4507 ], [ 1.07384, 6.40351 ], [ 1.07808, 6.38781 ], [ 1.07273, 6.35289 ], [ 1.0673, 6.32899 ], [ 1.04632, 6.32653 ], [ 1.05095, 6.29615 ], [ 1.06717, 6.27891 ], [ 1.07573, 6.29024 ], [ 1.08902, 6.26728 ], [ 1.0948, 6.26424 ], [ 1.09801, 6.25395 ], [ 1.09984, 6.25864 ], [ 1.1253, 6.26879 ], [ 1.14643, 6.27215 ], [ 1.15939, 6.28345 ], [ 1.16708, 6.29542 ], [ 1.16546, 6.30065 ], [ 1.17976, 6.29861 ], [ 1.18982, 6.31598 ], [ 1.19369, 6.33671 ], [ 1.21615, 6.36925 ], [ 1.22811, 6.36446 ], [ 1.24199, 6.35076 ], [ 1.2448, 6.34321 ], [ 1.24146, 6.33934 ], [ 1.2311, 6.34795 ], [ 1.22249, 6.35076 ], [ 1.21643, 6.34768 ], [ 1.23128, 6.31756 ], [ 1.25148, 6.29859 ], [ 1.24696, 6.27324 ], [ 1.2377, 6.27141 ], [ 1.22732, 6.27473 ], [ 1.27866, 6.24166 ], [ 1.28272, 6.22911 ], [ 1.28215, 6.20113 ], [ 1.28983, 6.19014 ], [ 1.30101, 6.19094 ], [ 1.34335, 6.20729 ], [ 1.39823, 6.21427 ], [ 1.40516, 6.24439 ], [ 1.40421, 6.26812 ], [ 1.38577, 6.30384 ], [ 1.38006, 6.36352 ], [ 1.37068, 6.41092 ], [ 1.36721, 6.42249 ], [ 1.34739, 6.4499 ], [ 1.34385, 6.48336 ], [ 1.31841, 6.51933 ], [ 1.30681, 6.52358 ], [ 1.29719, 6.57676 ], [ 1.29072, 6.58747 ], [ 1.29785, 6.62335 ], [ 1.29323, 6.62691 ], [ 1.30048, 6.64067 ], [ 1.30293, 6.67758 ], [ 1.29991, 6.68272 ], [ 1.25693, 6.69673 ], [ 1.24832, 6.70529 ], [ 1.24569, 6.71943 ], [ 1.25517, 6.73949 ], [ 1.27816, 6.75178 ], [ 1.27567, 6.75667 ], [ 1.24415, 6.76477 ], [ 1.23973, 6.77091 ], [ 1.2196, 6.74711 ], [ 1.21213, 6.74664 ], [ 1.18875, 6.76809 ], [ 1.17885, 6.77025 ], [ 1.15878, 6.78775 ], [ 1.14183, 6.79406 ], [ 1.133, 6.80479 ] ] ] } },
{ "type": "Feature", "properties": { "pcode": "TG0309", "prefecture": "Agoè-Nyivé", "region": "Maritime", "superficie_km2": 167.1 }, "geometry": { "type": "Polygon", "coordinates": [ [ [ 1.2448, 6.34321 ], [ 1.22811, 6.36446 ], [ 1.21615, 6.36925 ], [ 1.19369, 6.33671 ], [ 1.18982, 6.31598 ], [ 1.17976, 6.29861 ], [ 1.16546, 6.30065 ], [ 1.16708, 6.29542 ], [ 1.15939, 6.28345 ], [ 1.14643, 6.27215 ], [ 1.1253, 6.26879 ], [ 1.09984, 6.25864 ], [ 1.09801, 6.25395 ], [ 1.10398, 6.23942 ], [ 1.09071, 6.22344 ], [ 1.12145, 6.22389 ], [ 1.12945, 6.21685 ], [ 1.15556, 6.21264 ], [ 1.16536, 6.20424 ], [ 1.1664, 6.20921 ], [ 1.17355, 6.20574 ], [ 1.17695, 6.21169 ], [ 1.18406, 6.20334 ], [ 1.19012, 6.2055 ], [ 1.20027, 6.19819 ], [ 1.20428, 6.20634 ], [ 1.20856, 6.20078 ], [ 1.24118, 6.20702 ], [ 1.25012, 6.21948 ], [ 1.24157, 6.22739 ], [ 1.24829, 6.23322 ], [ 1.25316, 6.25678 ], [ 1.22663, 6.27657 ], [ 1.23545, 6.27176 ], [ 1.24696, 6.27324 ], [ 1.25148, 6.29859 ], [ 1.23128, 6.31756 ], [ 1.21643, 6.34768 ], [ 1.22249, 6.35076 ], [ 1.2311, 6.34795 ], [ 1.24146, 6.33934 ], [ 1.2448, 6.34321 ] ] ] } },
{ "type": "Feature", "properties": { "pcode": "TG0401", "prefecture": "Amou", "region": "Plateaux", "superficie_km2": 1807.8 }, "geometry": { "type": "Polygon", "coordinates": [ [ [ 1.08231, 7.87619 ], [ 1.04683, 7.88619 ], [ 1.03428, 7.88017 ], [ 1.01218, 7.88268 ], [ 0.97754, 7.87013 ], [ 0.92783, 7.87364 ], [ 0.91327, 7.8636 ], [ 0.89972, 7.84603 ], [ 0.88343, 7.81381 ], [ 0.8778, 7.77003 ], [ 0.87941, 7.75718 ], [ 0.87218, 7.7371 ], [ 0.86897, 7.69171 ], [ 0.86455, 7.68428 ], [ 0.87265, 7.68207 ], [ 0.88222, 7.65777 ], [ 0.89307, 7.65335 ], [ 0.90351, 7.65736 ], [ 0.90351, 7.62764 ], [ 0.90713, 7.61559 ], [ 0.91918, 7.59952 ], [ 0.93042, 7.58868 ], [ 0.95372, 7.57783 ], [ 1.00787, 7.5682 ], [ 1.00754, 7.54168 ], [ 0.99148, 7.53365 ], [ 0.99027, 7.52883 ], [ 0.97099, 7.51477 ], [ 0.96577, 7.51477 ], [ 0.94689, 7.53485 ], [ 0.93691, 7.53106 ], [ 0.93075, 7.53591 ], [ 0.91275, 7.51798 ], [ 0.89628, 7.51437 ], [ 0.88606, 7.50536 ], [ 0.89307, 7.50433 ], [ 0.89775, 7.49798 ], [ 0.88985, 7.49589 ], [ 0.88142, 7.46416 ], [ 0.85812, 7.44367 ], [ 0.84867, 7.41803 ], [ 0.83964, 7.40712 ], [ 0.80109, 7.39025 ], [ 0.78663, 7.36174 ], [ 0.76212, 7.34647 ], [ 0.75931, 7.32277 ], [ 0.76052, 7.31835 ], [ 0.78622, 7.30671 ], [ 0.82131, 7.29726 ], [ 0.84326, 7.30912 ], [ 0.85973, 7.31153 ], [ 0.8766, 7.32277 ], [ 0.90431, 7.32197 ], [ 0.93213, 7.31386 ], [ 0.94448, 7.3059 ], [ 0.95211, 7.29385 ], [ 0.96818, 7.30229 ], [ 0.973, 7.30108 ], [ 0.98063, 7.27096 ], [ 0.98103, 7.22517 ], [ 1.00634, 7.22356 ], [ 1.01317, 7.21432 ], [ 1.02803, 7.2099 ], [ 1.03897, 7.19298 ], [ 1.05919, 7.21561 ], [ 1.06735, 7.23444 ], [ 1.06547, 7.25327 ], [ 1.05856, 7.2608 ], [ 1.05668, 7.27649 ], [ 1.0617, 7.28088 ], [ 1.07676, 7.279 ], [ 1.08053, 7.32607 ], [ 1.11003, 7.33925 ], [ 1.11881, 7.35933 ], [ 1.13513, 7.35996 ], [ 1.14141, 7.36498 ], [ 1.14266, 7.39887 ], [ 1.13894, 7.42863 ], [ 1.14451, 7.44167 ], [ 1.14411, 7.46496 ], [ 1.13447, 7.48023 ], [ 1.11893, 7.47805 ], [ 1.10774, 7.50911 ], [ 1.12698, 7.54339 ], [ 1.1424, 7.55121 ], [ 1.14302, 7.56766 ], [ 1.15269, 7.58493 ], [ 1.15461, 7.59704 ], [ 1.14947, 7.62756 ], [ 1.13566, 7.66966 ], [ 1.11637, 7.70918 ], [ 1.11599, 7.72867 ], [ 1.13685, 7.74 ], [ 1.14302, 7.75707 ], [ 1.1422, 7.76879 ], [ 1.11267, 7.77695 ], [ 1.10898, 7.80301 ], [ 1.09966, 7.80816 ], [ 1.08649, 7.857 ], [ 1.08103, 7.8615 ], [ 1.08231, 7.87619 ] ] ] } },
{ "type": "Feature", "properties": { "pcode": "TG0402", "prefecture": "Wawa", "region": "Plateaux", "superficie_km2": 1243.8 }, "geometry": { "type": "Polygon", "coordinates": [ [ [ 0.6364, 7.69492 ], [ 0.62596, 7.70938 ], [ 0.61673, 7.71111 ], [ 0.61592, 7.70195 ], [ 0.60788, 7.70677 ], [ 0.58981, 7.70717 ], [ 0.57414, 7.64853 ], [ 0.57695, 7.61642 ], [ 0.54844, 7.60715 ], [ 0.54522, 7.60073 ], [ 0.53679, 7.59992 ], [ 0.51791, 7.58747 ], [ 0.51751, 7.55895 ], [ 0.50827, 7.52441 ], [ 0.51711, 7.48384 ], [ 0.5155, 7.47661 ], [ 0.50224, 7.46376 ], [ 0.51269, 7.45492 ], [ 0.51389, 7.4489 ], [ 0.51951, 7.45131 ], [ 0.52514, 7.44649 ], [ 0.53478, 7.40913 ], [ 0.56049, 7.39065 ], [ 0.57856, 7.38744 ], [ 0.61471, 7.4023 ], [ 0.62837, 7.4015 ], [ 0.64604, 7.38945 ], [ 0.64805, 7.37539 ], [ 0.68139, 7.38624 ], [ 0.69625, 7.38503 ], [ 0.71232, 7.3762 ], [ 0.72718, 7.38543 ], [ 0.74244, 7.38182 ], [ 0.80082, 7.38985 ], [ 0.83964, 7.40712 ], [ 0.84867, 7.41803 ], [ 0.85812, 7.44367 ], [ 0.88142, 7.46416 ], [ 0.88985, 7.49589 ], [ 0.89775, 7.49798 ], [ 0.89307, 7.50433 ], [ 0.88606, 7.50536 ], [ 0.89628, 7.51437 ], [ 0.91275, 7.51798 ], [ 0.93075, 7.53591 ], [ 0.93691, 7.53106 ], [ 0.94689, 7.53485 ], [ 0.96577, 7.51477 ], [ 0.97099, 7.51477 ], [ 0.99027, 7.52883 ], [ 0.99148, 7.53365 ], [ 1.00754, 7.54168 ], [ 1.00787, 7.5682 ], [ 0.95372, 7.57783 ], [ 0.93042, 7.58868 ], [ 0.91918, 7.59952 ], [ 0.90713, 7.61559 ], [ 0.90351, 7.62764 ], [ 0.90351, 7.65736 ], [ 0.89307, 7.65335 ], [ 0.88222, 7.65777 ], [ 0.87265, 7.68207 ], [ 0.85129, 7.68307 ], [ 0.8292, 7.67825 ], [ 0.80992, 7.63407 ], [ 0.80189, 7.62885 ], [ 0.79265, 7.64009 ], [ 0.78542, 7.66058 ], [ 0.76534, 7.65736 ], [ 0.73843, 7.63166 ], [ 0.70991, 7.61358 ], [ 0.69545, 7.61398 ], [ 0.67617, 7.618 ], [ 0.66371, 7.62724 ], [ 0.65407, 7.64692 ], [ 0.65213, 7.69169 ], [ 0.64443, 7.70135 ], [ 0.6364, 7.69492 ] ] ] } },
{ "type": "Feature", "properties": { "pcode": "TG0403", "prefecture": "Agou", "region": "Plateaux", "superficie_km2": 1095.2 }, "geometry": { "type": "Polygon", "coordinates": [ [ [ 0.7541, 6.97556 ], [ 0.7541, 6.98461 ], [ 0.74711, 6.97667 ], [ 0.74983, 6.97006 ], [ 0.74114, 6.95637 ], [ 0.72785, 6.95676 ], [ 0.71786, 6.94122 ], [ 0.7048, 6.93269 ], [ 0.70259, 6.91932 ], [ 0.69411, 6.91693 ], [ 0.69149, 6.90037 ], [ 0.69964, 6.89247 ], [ 0.6907, 6.88352 ], [ 0.68346, 6.86601 ], [ 0.67414, 6.85796 ], [ 0.67337, 6.8463 ], [ 0.66867, 6.85153 ], [ 0.6568, 6.84549 ], [ 0.66078, 6.83123 ], [ 0.6802, 6.82172 ], [ 0.67797, 6.81751 ], [ 0.68235, 6.80943 ], [ 0.66851, 6.80675 ], [ 0.65375, 6.79224 ], [ 0.64296, 6.77329 ], [ 0.6448, 6.76473 ], [ 0.62892, 6.74874 ], [ 0.64005, 6.748 ], [ 0.64622, 6.74101 ], [ 0.64128, 6.72661 ], [ 0.64375, 6.69248 ], [ 0.63532, 6.65073 ], [ 0.63779, 6.63222 ], [ 0.65856, 6.60651 ], [ 0.6709, 6.61124 ], [ 0.67995, 6.60692 ], [ 0.68829, 6.59217 ], [ 0.68122, 6.58382 ], [ 0.69118, 6.57836 ], [ 0.72685, 6.58543 ], [ 0.73745, 6.57707 ], [ 0.73809, 6.55329 ], [ 0.71317, 6.52766 ], [ 0.71376, 6.51993 ], [ 0.7183, 6.51674 ], [ 0.75239, 6.52727 ], [ 0.76392, 6.52606 ], [ 0.79573, 6.55064 ], [ 0.81666, 6.55272 ], [ 0.82352, 6.55795 ], [ 0.8414, 6.61267 ], [ 0.85492, 6.6295 ], [ 0.8662, 6.6555 ], [ 0.87431, 6.69466 ], [ 0.8801, 6.70151 ], [ 0.90008, 6.70301 ], [ 0.90099, 6.74346 ], [ 0.89698, 6.76999 ], [ 0.93739, 6.80012 ], [ 0.96116, 6.81168 ], [ 0.96406, 6.81715 ], [ 0.9602, 6.85667 ], [ 0.95274, 6.86081 ], [ 0.94792, 6.85985 ], [ 0.94086, 6.84988 ], [ 0.93475, 6.82225 ], [ 0.89233, 6.82611 ], [ 0.90272, 6.87905 ], [ 0.91022, 6.88932 ], [ 0.92067, 6.89494 ], [ 0.91986, 6.9094 ], [ 0.9038, 6.92547 ], [ 0.90179, 6.93712 ], [ 0.9181, 6.97885 ], [ 0.90982, 6.97327 ], [ 0.87448, 6.96604 ], [ 0.87166, 6.96242 ], [ 0.87448, 6.95961 ], [ 0.8813, 6.95921 ], [ 0.87809, 6.93832 ], [ 0.85728, 6.9185 ], [ 0.84273, 6.91186 ], [ 0.80921, 6.93312 ], [ 0.80528, 6.94894 ], [ 0.79478, 6.95554 ], [ 0.78595, 6.96806 ], [ 0.77444, 6.96847 ], [ 0.77587, 6.97526 ], [ 0.77188, 6.98355 ], [ 0.75984, 6.98295 ], [ 0.7541, 6.97556 ] ] ] } },
{ "type": "Feature", "properties": { "pcode": "TG0404", "prefecture": "Danyi", "region": "Plateaux", "superficie_km2": 396.1 }, "geometry": { "type": "Polygon", "coordinates": [ [ [ 0.78663, 7.36174 ], [ 0.80082, 7.38985 ], [ 0.74244, 7.38182 ], [ 0.72718, 7.38543 ], [ 0.71232, 7.3762 ], [ 0.69625, 7.38503 ], [ 0.68139, 7.38624 ], [ 0.64862, 7.37559 ], [ 0.64548, 7.35996 ], [ 0.65608, 7.3116 ], [ 0.64323, 7.28139 ], [ 0.63166, 7.20025 ], [ 0.62106, 7.17069 ], [ 0.59824, 7.13277 ], [ 0.60017, 7.11671 ], [ 0.62716, 7.07236 ], [ 0.67247, 7.09004 ], [ 0.68271, 7.10855 ], [ 0.66864, 7.12084 ], [ 0.68838, 7.12146 ], [ 0.69064, 7.13791 ], [ 0.69702, 7.15066 ], [ 0.7073, 7.1593 ], [ 0.72591, 7.20434 ], [ 0.73388, 7.20922 ], [ 0.75204, 7.23334 ], [ 0.79185, 7.29787 ], [ 0.79519, 7.30437 ], [ 0.76052, 7.31835 ], [ 0.75931, 7.32277 ], [ 0.76212, 7.34647 ], [ 0.78663, 7.36174 ] ] ] } },
{ "type": "Feature", "properties": { "pcode": "TG0405", "prefecture": "Est-Mono", "region": "Plateaux", "superficie_km2": 2652.6 }, "geometry": { "type": "Polygon", "coordinates": [ [ [ 1.62681, 8.37989 ], [ 1.63324, 8.40399 ], [ 1.64609, 8.41725 ], [ 1.63966, 8.43251 ], [ 1.65055, 8.47829 ], [ 1.61959, 8.47007 ], [ 1.59383, 8.45528 ], [ 1.52479, 8.43774 ], [ 1.51301, 8.42815 ], [ 1.50068, 8.40322 ], [ 1.48342, 8.3824 ], [ 1.46937, 8.36816 ], [ 1.45498, 8.3637 ], [ 1.40498, 8.36268 ], [ 1.38478, 8.35514 ], [ 1.35738, 8.35103 ], [ 1.33854, 8.35959 ], [ 1.32005, 8.35788 ], [ 1.3108, 8.3661 ], [ 1.28786, 8.36644 ], [ 1.27758, 8.37261 ], [ 1.2447, 8.37295 ], [ 1.22895, 8.37843 ], [ 1.23683, 8.36131 ], [ 1.22929, 8.34692 ], [ 1.22998, 8.29589 ], [ 1.24008, 8.27505 ], [ 1.25149, 8.26554 ], [ 1.26018, 8.24583 ], [ 1.24603, 8.23741 ], [ 1.24337, 8.21654 ], [ 1.25185, 8.20418 ], [ 1.26033, 8.1991 ], [ 1.26444, 8.18626 ], [ 1.25548, 8.10363 ], [ 1.23042, 8.09557 ], [ 1.23042, 8.09194 ], [ 1.2507, 8.07832 ], [ 1.251, 8.05677 ], [ 1.23476, 8.03228 ], [ 1.21675, 8.03346 ], [ 1.19745, 8.01529 ], [ 1.19555, 8.00053 ], [ 1.18571, 7.98993 ], [ 1.16981, 7.98539 ], [ 1.14856, 7.96607 ], [ 1.12184, 7.91757 ], [ 1.12955, 7.90247 ], [ 1.13758, 7.90086 ], [ 1.15686, 7.91275 ], [ 1.17293, 7.91243 ], [ 1.19317, 7.89604 ], [ 1.20788, 7.89705 ], [ 1.20449, 7.88166 ], [ 1.20934, 7.87633 ], [ 1.2265, 7.87653 ], [ 1.21856, 7.85673 ], [ 1.233, 7.85359 ], [ 1.24367, 7.84543 ], [ 1.26375, 7.84355 ], [ 1.28446, 7.85234 ], [ 1.28948, 7.84732 ], [ 1.28948, 7.83916 ], [ 1.28195, 7.82911 ], [ 1.29011, 7.82409 ], [ 1.30329, 7.82284 ], [ 1.32337, 7.83037 ], [ 1.39067, 7.79577 ], [ 1.4081, 7.81656 ], [ 1.4489, 7.82095 ], [ 1.45894, 7.83978 ], [ 1.4671, 7.8969 ], [ 1.45141, 7.90945 ], [ 1.44024, 7.90879 ], [ 1.44231, 7.96485 ], [ 1.48422, 7.96396 ], [ 1.49105, 7.95794 ], [ 1.49426, 7.94308 ], [ 1.50149, 7.93745 ], [ 1.5039, 7.92862 ], [ 1.53041, 7.90492 ], [ 1.63364, 7.91737 ], [ 1.64127, 8.30036 ], [ 1.63685, 8.33972 ], [ 1.62532, 8.3516 ], [ 1.62681, 8.37989 ] ] ] } },
{ "type": "Feature", "properties": { "pcode": "TG0406", "prefecture": "Haho", "region": "Plateaux", "superficie_km2": 3050.7 }, "geometry": { "type": "Polygon", "coordinates": [ [ [ 0.98103, 7.22517 ], [ 0.97782, 7.29064 ], [ 0.973, 7.30108 ], [ 0.96818, 7.30229 ], [ 0.95258, 7.29424 ], [ 0.93926, 7.26333 ], [ 0.93105, 7.25833 ], [ 0.92847, 7.2418 ], [ 0.93722, 7.23544 ], [ 0.9254, 7.22284 ], [ 0.92262, 7.1959 ], [ 0.92797, 7.14737 ], [ 0.93787, 7.11756 ], [ 0.9508, 7.09566 ], [ 0.95088, 7.06961 ], [ 0.967, 7.05349 ], [ 0.94627, 7.027 ], [ 0.93788, 7.03062 ], [ 0.93784, 7.0356 ], [ 0.92937, 7.03581 ], [ 0.92589, 7.0291 ], [ 0.90781, 7.02308 ], [ 0.9042, 7.01705 ], [ 0.90701, 7.01022 ], [ 0.92187, 6.99978 ], [ 0.91545, 6.96765 ], [ 0.90179, 6.93712 ], [ 0.9038, 6.92547 ], [ 0.91986, 6.9094 ], [ 0.92147, 6.90338 ], [ 0.92067, 6.89494 ], [ 0.91022, 6.88932 ], [ 0.90272, 6.87905 ], [ 0.89233, 6.82611 ], [ 0.93475, 6.82225 ], [ 0.94086, 6.84988 ], [ 0.94792, 6.85985 ], [ 0.9602, 6.8558 ], [ 0.97639, 6.8571 ], [ 1.01812, 6.86469 ], [ 1.03348, 6.87107 ], [ 1.06003, 6.85811 ], [ 1.09246, 6.82792 ], [ 1.09514, 6.81848 ], [ 1.10473, 6.80945 ], [ 1.133, 6.80479 ], [ 1.14183, 6.79406 ], [ 1.15878, 6.78775 ], [ 1.16982, 6.77571 ], [ 1.18875, 6.76809 ], [ 1.21564, 6.74599 ], [ 1.23973, 6.77091 ], [ 1.24415, 6.76477 ], [ 1.27517, 6.75601 ], [ 1.29377, 6.77701 ], [ 1.35101, 6.81874 ], [ 1.40523, 6.83681 ], [ 1.41037, 6.84366 ], [ 1.47076, 6.83003 ], [ 1.49937, 6.83656 ], [ 1.53201, 6.85865 ], [ 1.55661, 6.90183 ], [ 1.5777, 6.90886 ], [ 1.57569, 6.94652 ], [ 1.55912, 6.97112 ], [ 1.55816, 6.998 ], [ 1.54986, 7.01133 ], [ 1.53474, 7.01608 ], [ 1.53434, 7.04058 ], [ 1.55402, 7.0442 ], [ 1.56647, 7.06147 ], [ 1.56213, 7.0716 ], [ 1.52591, 7.08176 ], [ 1.49538, 7.10505 ], [ 1.47008, 7.10184 ], [ 1.46446, 7.10666 ], [ 1.46205, 7.12353 ], [ 1.44277, 7.13036 ], [ 1.44156, 7.18579 ], [ 1.45602, 7.19462 ], [ 1.47891, 7.18981 ], [ 1.47891, 7.20105 ], [ 1.45482, 7.24001 ], [ 1.46767, 7.28379 ], [ 1.46645, 7.2968 ], [ 1.44587, 7.29119 ], [ 1.42145, 7.27551 ], [ 1.4094, 7.25201 ], [ 1.41002, 7.23946 ], [ 1.3981, 7.22691 ], [ 1.36728, 7.24119 ], [ 1.35063, 7.2441 ], [ 1.27446, 7.23506 ], [ 1.23304, 7.21875 ], [ 1.19099, 7.23946 ], [ 1.15953, 7.23911 ], [ 1.1179, 7.23078 ], [ 1.09791, 7.19414 ], [ 1.0615, 7.18957 ], [ 1.03597, 7.19427 ], [ 1.02803, 7.2099 ], [ 1.01317, 7.21432 ], [ 1.00634, 7.22356 ], [ 0.98103, 7.22517 ] ] ] } },
{ "type": "Feature", "properties": { "pcode": "TG0407", "prefecture": "Kpélé", "region": "Plateaux", "superficie_km2": 930.3 }, "geometry": { "type": "Polygon", "coordinates": [ [ [ 0.8766, 7.32277 ], [ 0.85973, 7.31153 ], [ 0.84326, 7.30912 ], [ 0.82131, 7.29726 ], [ 0.79519, 7.30437 ], [ 0.75204, 7.23334 ], [ 0.73388, 7.20922 ], [ 0.72591, 7.20434 ], [ 0.7073, 7.1593 ], [ 0.69702, 7.15066 ], [ 0.69064, 7.13791 ], [ 0.68838, 7.12146 ], [ 0.66864, 7.12084 ], [ 0.68271, 7.10855 ], [ 0.67247, 7.09004 ], [ 0.65984, 7.08365 ], [ 0.65826, 7.07592 ], [ 0.65785, 7.06605 ], [ 0.68089, 7.03253 ], [ 0.70392, 7.02512 ], [ 0.73292, 7.0242 ], [ 0.76231, 6.98173 ], [ 0.77188, 6.98355 ], [ 0.77587, 6.97526 ], [ 0.77444, 6.96847 ], [ 0.78595, 6.96806 ], [ 0.79478, 6.95554 ], [ 0.80528, 6.94894 ], [ 0.80921, 6.93312 ], [ 0.84273, 6.91186 ], [ 0.85728, 6.9185 ], [ 0.87809, 6.93832 ], [ 0.8813, 6.95921 ], [ 0.87448, 6.95961 ], [ 0.87166, 6.96242 ], [ 0.87448, 6.96604 ], [ 0.90982, 6.97327 ], [ 0.91866, 6.97929 ], [ 0.92187, 6.99978 ], [ 0.90701, 7.01022 ], [ 0.9042, 7.01705 ], [ 0.90781, 7.02308 ], [ 0.92589, 7.0291 ], [ 0.92937, 7.03581 ], [ 0.93784, 7.0356 ], [ 0.93788, 7.03062 ], [ 0.94627, 7.027 ], [ 0.967, 7.05349 ], [ 0.95088, 7.06961 ], [ 0.9508, 7.09566 ], [ 0.93787, 7.11756 ], [ 0.92797, 7.14737 ], [ 0.92262, 7.1959 ], [ 0.9254, 7.22284 ], [ 0.93722, 7.23544 ], [ 0.92847, 7.2418 ], [ 0.93105, 7.25833 ], [ 0.93926, 7.26333 ], [ 0.95258, 7.29424 ], [ 0.94649, 7.29827 ], [ 0.94448, 7.3059 ], [ 0.93213, 7.31386 ], [ 0.90431, 7.32197 ], [ 0.8766, 7.32277 ] ] ] } },
{ "type": "Feature", "properties": { "pcode": "TG0408", "prefecture": "Moyen-Mono", "region": "Plateaux", "superficie_km2": 626.3 }, "geometry": { "type": "Polygon", "coordinates": [ [ [ 1.64159, 6.99399 ], [ 1.63492, 7.40069 ], [ 1.62574, 7.40066 ], [ 1.60282, 7.38505 ], [ 1.58859, 7.36529 ], [ 1.57396, 7.33242 ], [ 1.56239, 7.32663 ], [ 1.55885, 7.31539 ], [ 1.53668, 7.29964 ], [ 1.51676, 7.30735 ], [ 1.50391, 7.30318 ], [ 1.48912, 7.29097 ], [ 1.47274, 7.28872 ], [ 1.46689, 7.29623 ], [ 1.46767, 7.28379 ], [ 1.45482, 7.24001 ], [ 1.47891, 7.20105 ], [ 1.47891, 7.18981 ], [ 1.45602, 7.19462 ], [ 1.44156, 7.18579 ], [ 1.44277, 7.13036 ], [ 1.46205, 7.12353 ], [ 1.46446, 7.10666 ], [ 1.47008, 7.10184 ], [ 1.49538, 7.10505 ], [ 1.52591, 7.08176 ], [ 1.56213, 7.0716 ], [ 1.56647, 7.06147 ], [ 1.55402, 7.0442 ], [ 1.53434, 7.04058 ], [ 1.53625, 7.01307 ], [ 1.54986, 7.01133 ], [ 1.55816, 6.998 ], [ 1.64159, 6.99399 ] ] ] } },
{ "type": "Feature", "properties": { "pcode": "TG0409", "prefecture": "Ogou", "region": "Plateaux", "superficie_km2": 1944.0 }, "geometry": { "type": "Polygon", "coordinates": [ [ [ 1.18161, 7.71995 ], [ 1.1755, 7.73634 ], [ 1.16618, 7.73891 ], [ 1.15911, 7.73473 ], [ 1.14497, 7.71256 ], [ 1.11662, 7.71228 ], [ 1.14658, 7.63688 ], [ 1.15461, 7.59704 ], [ 1.15269, 7.58493 ], [ 1.14302, 7.56766 ], [ 1.1424, 7.55121 ], [ 1.12698, 7.54339 ], [ 1.10774, 7.50911 ], [ 1.11893, 7.47805 ], [ 1.13447, 7.48023 ], [ 1.14411, 7.46496 ], [ 1.14451, 7.44167 ], [ 1.13894, 7.42863 ], [ 1.14266, 7.39887 ], [ 1.14141, 7.36498 ], [ 1.13513, 7.35996 ], [ 1.11881, 7.35933 ], [ 1.11003, 7.33925 ], [ 1.08053, 7.32607 ], [ 1.07676, 7.279 ], [ 1.0617, 7.28088 ], [ 1.05668, 7.27649 ], [ 1.05856, 7.2608 ], [ 1.06547, 7.25327 ], [ 1.06735, 7.23444 ], [ 1.05919, 7.21561 ], [ 1.03897, 7.19298 ], [ 1.0615, 7.18957 ], [ 1.09791, 7.19414 ], [ 1.1179, 7.23078 ], [ 1.15953, 7.23911 ], [ 1.19099, 7.23946 ], [ 1.23304, 7.21875 ], [ 1.27446, 7.23506 ], [ 1.35063, 7.2441 ], [ 1.36728, 7.24119 ], [ 1.3981, 7.22691 ], [ 1.41002, 7.23946 ], [ 1.4094, 7.25201 ], [ 1.42428, 7.27834 ], [ 1.44587, 7.29119 ], [ 1.46645, 7.2968 ], [ 1.47274, 7.28872 ], [ 1.48912, 7.29097 ], [ 1.50391, 7.30318 ], [ 1.51676, 7.30735 ], [ 1.53668, 7.29964 ], [ 1.55885, 7.31539 ], [ 1.56239, 7.32663 ], [ 1.57396, 7.33242 ], [ 1.58859, 7.36529 ], [ 1.60282, 7.38505 ], [ 1.62574, 7.40066 ], [ 1.63492, 7.40069 ], [ 1.64401, 7.48569 ], [ 1.65429, 7.49437 ], [ 1.6755, 7.49437 ], [ 1.67711, 7.50112 ], [ 1.66875, 7.51815 ], [ 1.65925, 7.52129 ], [ 1.65461, 7.51221 ], [ 1.61894, 7.50578 ], [ 1.6048, 7.50996 ], [ 1.60641, 7.51895 ], [ 1.6032, 7.52538 ], [ 1.58713, 7.54048 ], [ 1.555, 7.54723 ], [ 1.53636, 7.54595 ], [ 1.53122, 7.53695 ], [ 1.53154, 7.52184 ], [ 1.52158, 7.51124 ], [ 1.49073, 7.50883 ], [ 1.45088, 7.4963 ], [ 1.44992, 7.45967 ], [ 1.44125, 7.42303 ], [ 1.40558, 7.46545 ], [ 1.40333, 7.48023 ], [ 1.38533, 7.48602 ], [ 1.37891, 7.49276 ], [ 1.37666, 7.50112 ], [ 1.38597, 7.50947 ], [ 1.37987, 7.52136 ], [ 1.36091, 7.52329 ], [ 1.33745, 7.5339 ], [ 1.3381, 7.54145 ], [ 1.34902, 7.5453 ], [ 1.35127, 7.55398 ], [ 1.34838, 7.55944 ], [ 1.33231, 7.55719 ], [ 1.30693, 7.57101 ], [ 1.30725, 7.5829 ], [ 1.31914, 7.59415 ], [ 1.30693, 7.60346 ], [ 1.29825, 7.59704 ], [ 1.287, 7.6025 ], [ 1.28411, 7.61214 ], [ 1.29375, 7.61792 ], [ 1.29986, 7.63817 ], [ 1.28604, 7.665 ], [ 1.25776, 7.68107 ], [ 1.21535, 7.68139 ], [ 1.19317, 7.67721 ], [ 1.17582, 7.68267 ], [ 1.17293, 7.69231 ], [ 1.18032, 7.70613 ], [ 1.18161, 7.71995 ] ] ] } },
{ "type": "Feature", "properties": { "pcode": "TG0410", "prefecture": "Akébou", "region": "Plateaux", "superficie_km2": 1145.9 }, "geometry": { "type": "Polygon", "coordinates": [ [ [ 0.86816, 8.02215 ], [ 0.8618, 8.03184 ], [ 0.83712, 8.03874 ], [ 0.83161, 7.96818 ], [ 0.82593, 7.9538 ], [ 0.80927, 7.94244 ], [ 0.77307, 7.93235 ], [ 0.71265, 7.95186 ], [ 0.70953, 7.96459 ], [ 0.70139, 7.96326 ], [ 0.69288, 7.95967 ], [ 0.68969, 7.95152 ], [ 0.70007, 7.92106 ], [ 0.68493, 7.90213 ], [ 0.66619, 7.89399 ], [ 0.61602, 7.89098 ], [ 0.6219, 7.85954 ], [ 0.60903, 7.78611 ], [ 0.61585, 7.76908 ], [ 0.60828, 7.74493 ], [ 0.61632, 7.71119 ], [ 0.62596, 7.70938 ], [ 0.6364, 7.69492 ], [ 0.64443, 7.70135 ], [ 0.65213, 7.69169 ], [ 0.65407, 7.64692 ], [ 0.66371, 7.62724 ], [ 0.67617, 7.618 ], [ 0.70991, 7.61358 ], [ 0.73843, 7.63166 ], [ 0.76534, 7.65736 ], [ 0.78542, 7.66058 ], [ 0.79265, 7.64009 ], [ 0.80189, 7.62885 ], [ 0.80992, 7.63407 ], [ 0.8292, 7.67825 ], [ 0.86482, 7.6842 ], [ 0.86897, 7.69171 ], [ 0.87218, 7.7371 ], [ 0.87941, 7.75718 ], [ 0.8778, 7.77003 ], [ 0.88343, 7.81381 ], [ 0.89972, 7.84603 ], [ 0.91327, 7.8636 ], [ 0.92783, 7.87364 ], [ 0.97754, 7.87013 ], [ 1.01218, 7.88268 ], [ 1.03428, 7.88017 ], [ 1.04683, 7.88619 ], [ 1.08231, 7.87619 ], [ 1.08038, 7.89299 ], [ 1.04954, 7.91323 ], [ 1.04407, 7.94247 ], [ 1.03829, 7.94794 ], [ 1.03847, 7.9606 ], [ 0.96325, 7.98097 ], [ 0.91903, 7.96461 ], [ 0.88451, 7.95946 ], [ 0.86816, 8.02215 ] ] ] } },
{ "type": "Feature", "properties": { "pcode": "TG0411", "prefecture": "Anié", "region": "Plateaux", "superficie_km2": 1986.0 }, "geometry": { "type": "Polygon", "coordinates": [ [ [ 1.12184, 7.91757 ], [ 1.14856, 7.96607 ], [ 1.12515, 7.95776 ], [ 1.07442, 7.94905 ], [ 1.05928, 7.94981 ], [ 1.03847, 7.9606 ], [ 1.03829, 7.94794 ], [ 1.04407, 7.94247 ], [ 1.04954, 7.91323 ], [ 1.08038, 7.89299 ], [ 1.08103, 7.8615 ], [ 1.08649, 7.857 ], [ 1.09966, 7.80816 ], [ 1.10898, 7.80301 ], [ 1.11267, 7.77695 ], [ 1.1422, 7.76879 ], [ 1.14302, 7.75707 ], [ 1.13685, 7.74 ], [ 1.11599, 7.72867 ], [ 1.1167, 7.71095 ], [ 1.14497, 7.71256 ], [ 1.15911, 7.73473 ], [ 1.16618, 7.73891 ], [ 1.1755, 7.73634 ], [ 1.18161, 7.71995 ], [ 1.18032, 7.70613 ], [ 1.17293, 7.69231 ], [ 1.17582, 7.68267 ], [ 1.19317, 7.67721 ], [ 1.21535, 7.68139 ], [ 1.25776, 7.68107 ], [ 1.28604, 7.665 ], [ 1.29986, 7.63817 ], [ 1.29375, 7.61792 ], [ 1.28411, 7.61214 ], [ 1.287, 7.6025 ], [ 1.29825, 7.59704 ], [ 1.30693, 7.60346 ], [ 1.314, 7.60089 ], [ 1.31914, 7.59415 ], [ 1.30725, 7.5829 ], [ 1.30693, 7.57101 ], [ 1.33231, 7.55719 ], [ 1.34838, 7.55944 ], [ 1.35127, 7.55398 ], [ 1.34902, 7.5453 ], [ 1.3381, 7.54145 ], [ 1.33745, 7.5339 ], [ 1.36091, 7.52329 ], [ 1.37987, 7.52136 ], [ 1.38597, 7.50947 ], [ 1.37666, 7.50112 ], [ 1.37891, 7.49276 ], [ 1.38533, 7.48602 ], [ 1.40333, 7.48023 ], [ 1.40558, 7.46545 ], [ 1.43418, 7.42785 ], [ 1.44125, 7.42303 ], [ 1.44414, 7.43075 ], [ 1.44992, 7.45967 ], [ 1.45088, 7.4963 ], [ 1.49073, 7.50883 ], [ 1.52158, 7.51124 ], [ 1.53154, 7.52184 ], [ 1.53122, 7.53695 ], [ 1.53636, 7.54595 ], [ 1.555, 7.54723 ], [ 1.58713, 7.54048 ], [ 1.6032, 7.52538 ], [ 1.60641, 7.51895 ], [ 1.6048, 7.50996 ], [ 1.61894, 7.50578 ], [ 1.65461, 7.51221 ], [ 1.65943, 7.52088 ], [ 1.64947, 7.54819 ], [ 1.65076, 7.61343 ], [ 1.63148, 7.6613 ], [ 1.63592, 7.79648 ], [ 1.62965, 7.8266 ], [ 1.63272, 7.9173 ], [ 1.53041, 7.90492 ], [ 1.5039, 7.92862 ], [ 1.50149, 7.93745 ], [ 1.49426, 7.94308 ], [ 1.49105, 7.95794 ], [ 1.48422, 7.96396 ], [ 1.44231, 7.96485 ], [ 1.44024, 7.90879 ], [ 1.45141, 7.90945 ], [ 1.4671, 7.8969 ], [ 1.45894, 7.83978 ], [ 1.4489, 7.82095 ], [ 1.4081, 7.81656 ], [ 1.39067, 7.79577 ], [ 1.32337, 7.83037 ], [ 1.30329, 7.82284 ], [ 1.29011, 7.82409 ], [ 1.28195, 7.82911 ], [ 1.28948, 7.83916 ], [ 1.28948, 7.84732 ], [ 1.28446, 7.85234 ], [ 1.26375, 7.84355 ], [ 1.24367, 7.84543 ], [ 1.233, 7.85359 ], [ 1.21856, 7.85673 ], [ 1.2265, 7.87653 ], [ 1.20934, 7.87633 ], [ 1.20449, 7.88166 ], [ 1.20788, 7.89705 ], [ 1.19317, 7.89604 ], [ 1.17293, 7.91243 ], [ 1.15686, 7.91275 ], [ 1.13758, 7.90086 ], [ 1.12955, 7.90247 ], [ 1.12184, 7.91757 ] ] ] } },
{ "type": "Feature", "properties": { "pcode": "TG0412", "prefecture": "Kloto", "region": "Plateaux", "superficie_km2": 527.8 }, "geometry": { "type": "Polygon", "coordinates": [ [ [ 0.62716, 7.07236 ], [ 0.6144, 7.0922 ], [ 0.61046, 7.0804 ], [ 0.59554, 7.05988 ], [ 0.59883, 7.02841 ], [ 0.57127, 7.00559 ], [ 0.55749, 6.99983 ], [ 0.52274, 6.97433 ], [ 0.51657, 6.96672 ], [ 0.51472, 6.94841 ], [ 0.52624, 6.93957 ], [ 0.54618, 6.9334 ], [ 0.55811, 6.91407 ], [ 0.55153, 6.88713 ], [ 0.53899, 6.87602 ], [ 0.53023, 6.85004 ], [ 0.53012, 6.82583 ], [ 0.55529, 6.82519 ], [ 0.57782, 6.80762 ], [ 0.58072, 6.79775 ], [ 0.57243, 6.80354 ], [ 0.5665, 6.79999 ], [ 0.57228, 6.76526 ], [ 0.57649, 6.76131 ], [ 0.58768, 6.76276 ], [ 0.60742, 6.75328 ], [ 0.62374, 6.75394 ], [ 0.62887, 6.74867 ], [ 0.6448, 6.76473 ], [ 0.64296, 6.77329 ], [ 0.65375, 6.79224 ], [ 0.66851, 6.80675 ], [ 0.68235, 6.80943 ], [ 0.67797, 6.81751 ], [ 0.6802, 6.82172 ], [ 0.66078, 6.83123 ], [ 0.6568, 6.84549 ], [ 0.66867, 6.85153 ], [ 0.67337, 6.8463 ], [ 0.67414, 6.85796 ], [ 0.68346, 6.86601 ], [ 0.6907, 6.88352 ], [ 0.69964, 6.89247 ], [ 0.69149, 6.90037 ], [ 0.69411, 6.91693 ], [ 0.70259, 6.91932 ], [ 0.7048, 6.93269 ], [ 0.71786, 6.94122 ], [ 0.72785, 6.95676 ], [ 0.74114, 6.95637 ], [ 0.74983, 6.97006 ], [ 0.74711, 6.97667 ], [ 0.75307, 6.9842 ], [ 0.75616, 6.97474 ], [ 0.75904, 6.98214 ], [ 0.76356, 6.98307 ], [ 0.73292, 7.0242 ], [ 0.70392, 7.02512 ], [ 0.68089, 7.03253 ], [ 0.65785, 7.06605 ], [ 0.65984, 7.08365 ], [ 0.64387, 7.08104 ], [ 0.63263, 7.07268 ], [ 0.62716, 7.07236 ] ] ] } },
{ "type": "Feature", "properties": { "pcode": "TG0513", "prefecture": "Kpendjal", "region": "Savanes", "superficie_km2": 1393.2 }, "geometry": { "type": "Polygon", "coordinates": [ [ [ 0.91229, 10.99654 ], [ 0.63914, 10.99957 ], [ 0.59711, 10.97912 ], [ 0.58827, 10.96051 ], [ 0.57646, 10.95263 ], [ 0.57313, 10.94476 ], [ 0.57718, 10.90799 ], [ 0.56949, 10.91508 ], [ 0.5383, 10.89752 ], [ 0.53982, 10.89328 ], [ 0.53376, 10.88389 ], [ 0.54103, 10.87693 ], [ 0.54072, 10.86482 ], [ 0.53648, 10.863 ], [ 0.53815, 10.85437 ], [ 0.53421, 10.8465 ], [ 0.53058, 10.84831 ], [ 0.52755, 10.84437 ], [ 0.53633, 10.83681 ], [ 0.53724, 10.82621 ], [ 0.52846, 10.83044 ], [ 0.52271, 10.8259 ], [ 0.52967, 10.8147 ], [ 0.53058, 10.79592 ], [ 0.50938, 10.77957 ], [ 0.5118, 10.73082 ], [ 0.50802, 10.70794 ], [ 0.48135, 10.70916 ], [ 0.48247, 10.69297 ], [ 0.49806, 10.68469 ], [ 0.53865, 10.67705 ], [ 0.55619, 10.66814 ], [ 0.54804, 10.62935 ], [ 0.55571, 10.63119 ], [ 0.55602, 10.61998 ], [ 0.57055, 10.6215 ], [ 0.57994, 10.61363 ], [ 0.60568, 10.61605 ], [ 0.62446, 10.60787 ], [ 0.67437, 10.61443 ], [ 0.68053, 10.62027 ], [ 0.68555, 10.64574 ], [ 0.68914, 10.64682 ], [ 0.69272, 10.64144 ], [ 0.70743, 10.65794 ], [ 0.74351, 10.65489 ], [ 0.75407, 10.66476 ], [ 0.76735, 10.66081 ], [ 0.76986, 10.66548 ], [ 0.76304, 10.67409 ], [ 0.77345, 10.67696 ], [ 0.77309, 10.68629 ], [ 0.78098, 10.69956 ], [ 0.79841, 10.69593 ], [ 0.80491, 10.68324 ], [ 0.81205, 10.6803 ], [ 0.81502, 10.70464 ], [ 0.83678, 10.75479 ], [ 0.87369, 10.80637 ], [ 0.88503, 10.86148 ], [ 0.90078, 10.88692 ], [ 0.89018, 10.92023 ], [ 0.91229, 10.99654 ] ] ] } },
{ "type": "Feature", "properties": { "pcode": "TG0514", "prefecture": "Oti", "region": "Savanes", "superficie_km2": 1541.9 }, "geometry": { "type": "Polygon", "coordinates": [ [ [ 0.34677, 10.68526 ], [ 0.30416, 10.66933 ], [ 0.30252, 10.66238 ], [ 0.3195, 10.65845 ], [ 0.32056, 10.64902 ], [ 0.33564, 10.63768 ], [ 0.33532, 10.63306 ], [ 0.32539, 10.62902 ], [ 0.31944, 10.6215 ], [ 0.31137, 10.59659 ], [ 0.30113, 10.58614 ], [ 0.27566, 10.59161 ], [ 0.25346, 10.58702 ], [ 0.2427, 10.59222 ], [ 0.21578, 10.56625 ], [ 0.18734, 10.54968 ], [ 0.19276, 10.54586 ], [ 0.21523, 10.55042 ], [ 0.22263, 10.54467 ], [ 0.22316, 10.53959 ], [ 0.20718, 10.52104 ], [ 0.20871, 10.51403 ], [ 0.19188, 10.50783 ], [ 0.19166, 10.50443 ], [ 0.19853, 10.5028 ], [ 0.21166, 10.51284 ], [ 0.21534, 10.51167 ], [ 0.21371, 10.50269 ], [ 0.21974, 10.48482 ], [ 0.21717, 10.42919 ], [ 0.18524, 10.42518 ], [ 0.18335, 10.41257 ], [ 0.19281, 10.3968 ], [ 0.20385, 10.39837 ], [ 0.20259, 10.41162 ], [ 0.21331, 10.4173 ], [ 0.2351, 10.40698 ], [ 0.25986, 10.40518 ], [ 0.26955, 10.41523 ], [ 0.28174, 10.41559 ], [ 0.2943, 10.40267 ], [ 0.29897, 10.39155 ], [ 0.28838, 10.37774 ], [ 0.28946, 10.37236 ], [ 0.30632, 10.36339 ], [ 0.31457, 10.33361 ], [ 0.32534, 10.33504 ], [ 0.33215, 10.32894 ], [ 0.33143, 10.3189 ], [ 0.32031, 10.3128 ], [ 0.31888, 10.30526 ], [ 0.38453, 10.30849 ], [ 0.39207, 10.3049 ], [ 0.39314, 10.30132 ], [ 0.36982, 10.28015 ], [ 0.37915, 10.2719 ], [ 0.35942, 10.25324 ], [ 0.35816, 10.21667 ], [ 0.34887, 10.18431 ], [ 0.34887, 10.16093 ], [ 0.35784, 10.13915 ], [ 0.35709, 10.12462 ], [ 0.37467, 10.13646 ], [ 0.384, 10.12893 ], [ 0.38794, 10.14077 ], [ 0.40301, 10.1526 ], [ 0.42095, 10.1544 ], [ 0.43567, 10.16122 ], [ 0.42167, 10.17341 ], [ 0.40803, 10.17664 ], [ 0.41001, 10.18974 ], [ 0.41862, 10.19189 ], [ 0.424, 10.18543 ], [ 0.45342, 10.20481 ], [ 0.46131, 10.20552 ], [ 0.47315, 10.19835 ], [ 0.47889, 10.20086 ], [ 0.48571, 10.21342 ], [ 0.50221, 10.21808 ], [ 0.50401, 10.23315 ], [ 0.51979, 10.25468 ], [ 0.53414, 10.28517 ], [ 0.56966, 10.31136 ], [ 0.59071, 10.33571 ], [ 0.56751, 10.34617 ], [ 0.55818, 10.3842 ], [ 0.54024, 10.39603 ], [ 0.51154, 10.42832 ], [ 0.53091, 10.4459 ], [ 0.53271, 10.45559 ], [ 0.51289, 10.463 ], [ 0.51459, 10.47766 ], [ 0.52894, 10.4834 ], [ 0.53253, 10.506 ], [ 0.53935, 10.50743 ], [ 0.56302, 10.49847 ], [ 0.56984, 10.50385 ], [ 0.56051, 10.51138 ], [ 0.56446, 10.55121 ], [ 0.57271, 10.56843 ], [ 0.58635, 10.57632 ], [ 0.59513, 10.56502 ], [ 0.6285, 10.55964 ], [ 0.64142, 10.55282 ], [ 0.66689, 10.55174 ], [ 0.67945, 10.5582 ], [ 0.68088, 10.5661 ], [ 0.67945, 10.57578 ], [ 0.66689, 10.59587 ], [ 0.66617, 10.60664 ], [ 0.67437, 10.61443 ], [ 0.62446, 10.60787 ], [ 0.60568, 10.61605 ], [ 0.57994, 10.61363 ], [ 0.57055, 10.6215 ], [ 0.55602, 10.61998 ], [ 0.55571, 10.63119 ], [ 0.54804, 10.62935 ], [ 0.55619, 10.66814 ], [ 0.53865, 10.67705 ], [ 0.52205, 10.64053 ], [ 0.51119, 10.63528 ], [ 0.49011, 10.63231 ], [ 0.47135, 10.63448 ], [ 0.44081, 10.62564 ], [ 0.43507, 10.6382 ], [ 0.4143, 10.65402 ], [ 0.37856, 10.66107 ], [ 0.3767, 10.68045 ], [ 0.37344, 10.68324 ], [ 0.35112, 10.682 ], [ 0.34677, 10.68526 ] ] ] } },
{ "type": "Feature", "properties": { "pcode": "TG0515", "prefecture": "Tandjoaré", "region": "Savanes", "superficie_km2": 951.4 }, "geometry": { "type": "Polygon", "coordinates": [ [ [ 0.16431, 10.78578 ], [ 0.1203, 10.78513 ], [ 0.12896, 10.79531 ], [ 0.10518, 10.80576 ], [ 0.07341, 10.80077 ], [ 0.04306, 10.78444 ], [ 0.06131, 10.77501 ], [ 0.06521, 10.76763 ], [ 0.05947, 10.76107 ], [ 0.04598, 10.7542 ], [ 0.02556, 10.75159 ], [ 0.00456, 10.75635 ], [ -0.01337, 10.75197 ], [ -0.01831, 10.75435 ], [ -0.00429, 10.7757 ], [ -0.0056, 10.78587 ], [ -0.01348, 10.78374 ], [ -0.07318, 10.75979 ], [ -0.0776, 10.75225 ], [ -0.07435, 10.72384 ], [ -0.08798, 10.71499 ], [ -0.07118, 10.67569 ], [ -0.06824, 10.65126 ], [ -0.05433, 10.63154 ], [ 0.03388, 10.59631 ], [ 0.04841, 10.58748 ], [ 0.07173, 10.55453 ], [ 0.10997, 10.54293 ], [ 0.13159, 10.53102 ], [ 0.14153, 10.51416 ], [ 0.15366, 10.47213 ], [ 0.15481, 10.45397 ], [ 0.16766, 10.44004 ], [ 0.16602, 10.43131 ], [ 0.16952, 10.42286 ], [ 0.18335, 10.41276 ], [ 0.18524, 10.42518 ], [ 0.21717, 10.42919 ], [ 0.21974, 10.48482 ], [ 0.21371, 10.50269 ], [ 0.21534, 10.51167 ], [ 0.21166, 10.51284 ], [ 0.19853, 10.5028 ], [ 0.19166, 10.50443 ], [ 0.19188, 10.50783 ], [ 0.20871, 10.51403 ], [ 0.20718, 10.52104 ], [ 0.22316, 10.53959 ], [ 0.22263, 10.54467 ], [ 0.21523, 10.55042 ], [ 0.19276, 10.54586 ], [ 0.18734, 10.54968 ], [ 0.21578, 10.56625 ], [ 0.2427, 10.59222 ], [ 0.25346, 10.58702 ], [ 0.27566, 10.59161 ], [ 0.30113, 10.58614 ], [ 0.31137, 10.59659 ], [ 0.31944, 10.6215 ], [ 0.32539, 10.62902 ], [ 0.33532, 10.63306 ], [ 0.33564, 10.63768 ], [ 0.32056, 10.64902 ], [ 0.3195, 10.65845 ], [ 0.28226, 10.67111 ], [ 0.27633, 10.69658 ], [ 0.25949, 10.72244 ], [ 0.25156, 10.72028 ], [ 0.25008, 10.73306 ], [ 0.24179, 10.73508 ], [ 0.23946, 10.74631 ], [ 0.21425, 10.75369 ], [ 0.21274, 10.78091 ], [ 0.204, 10.7785 ], [ 0.16431, 10.78578 ] ] ] } },
{ "type": "Feature", "properties": { "pcode": "TG0516", "prefecture": "Tône", "region": "Savanes", "superficie_km2": 1219.8 }, "geometry": { "type": "Polygon", "coordinates": [ [ [ 0.29153, 11.05043 ], [ 0.19036, 11.07177 ], [ 0.18175, 11.06849 ], [ 0.17806, 11.04634 ], [ 0.18913, 11.04019 ], [ 0.19282, 11.0324 ], [ 0.21127, 11.03015 ], [ 0.21921, 11.01359 ], [ 0.21189, 11.0037 ], [ 0.21476, 10.98484 ], [ 0.20287, 10.97582 ], [ 0.1992, 10.96616 ], [ 0.17784, 10.97482 ], [ 0.176, 10.97184 ], [ 0.14844, 10.98556 ], [ 0.13704, 10.97179 ], [ 0.12117, 10.99318 ], [ 0.1033, 10.99121 ], [ 0.08624, 11.00121 ], [ 0.02949, 10.99318 ], [ 0.03212, 10.98449 ], [ 0.02671, 10.97432 ], [ 0.01785, 10.97235 ], [ 0.00686, 10.96153 ], [ -0.01167, 10.95645 ], [ -0.01575, 10.93241 ], [ -0.01407, 10.91065 ], [ -0.03174, 10.87015 ], [ -0.03396, 10.85026 ], [ -0.02646, 10.82539 ], [ -0.0282, 10.81821 ], [ -0.03429, 10.80769 ], [ -0.04554, 10.79981 ], [ -0.04846, 10.78993 ], [ -0.06212, 10.78143 ], [ -0.06759, 10.76898 ], [ -0.07348, 10.76966 ], [ -0.07292, 10.75989 ], [ -0.0056, 10.78587 ], [ -0.00429, 10.7757 ], [ -0.01831, 10.75435 ], [ -0.01337, 10.75197 ], [ 0.00456, 10.75635 ], [ 0.02556, 10.75159 ], [ 0.04598, 10.7542 ], [ 0.06521, 10.76763 ], [ 0.05721, 10.77829 ], [ 0.04409, 10.78178 ], [ 0.0447, 10.78814 ], [ 0.07341, 10.80077 ], [ 0.10518, 10.80576 ], [ 0.12896, 10.79531 ], [ 0.1203, 10.78513 ], [ 0.14967, 10.7826 ], [ 0.16431, 10.78578 ], [ 0.204, 10.7785 ], [ 0.21274, 10.78091 ], [ 0.21425, 10.75369 ], [ 0.23946, 10.74631 ], [ 0.24179, 10.73508 ], [ 0.25008, 10.73306 ], [ 0.25156, 10.72028 ], [ 0.25949, 10.72244 ], [ 0.27633, 10.69658 ], [ 0.28226, 10.67111 ], [ 0.29171, 10.6655 ], [ 0.30235, 10.66281 ], [ 0.30671, 10.67273 ], [ 0.3185, 10.67235 ], [ 0.34232, 10.68277 ], [ 0.34575, 10.68613 ], [ 0.33459, 10.69609 ], [ 0.32577, 10.71597 ], [ 0.33008, 10.73668 ], [ 0.32659, 10.75123 ], [ 0.33049, 10.75738 ], [ 0.34525, 10.75308 ], [ 0.34832, 10.75697 ], [ 0.33438, 10.76763 ], [ 0.33192, 10.79101 ], [ 0.32095, 10.80812 ], [ 0.32362, 10.81632 ], [ 0.3308, 10.81796 ], [ 0.337, 10.82703 ], [ 0.38478, 10.83312 ], [ 0.37141, 10.86584 ], [ 0.35173, 10.89331 ], [ 0.35665, 10.91689 ], [ 0.37355, 10.94695 ], [ 0.36221, 10.954 ], [ 0.35948, 10.96036 ], [ 0.37266, 10.97565 ], [ 0.38857, 10.98477 ], [ 0.38955, 11.00461 ], [ 0.40185, 11.00215 ], [ 0.40185, 11.02085 ], [ 0.40858, 11.02692 ], [ 0.3971, 11.02987 ], [ 0.39236, 11.03754 ], [ 0.362, 11.04424 ], [ 0.29153, 11.05043 ] ] ] } },
{ "type": "Feature", "properties": { "pcode": "TG0517", "prefecture": "Cinkassé", "region": "Savanes", "superficie_km2": 275.6 }, "geometry": { "type": "Polygon", "coordinates": [ [ [ -0.09351, 11.12929 ], [ -0.13171, 11.13804 ], [ -0.14197, 11.11916 ], [ -0.14229, 11.10656 ], [ -0.12479, 11.10493 ], [ -0.10974, 11.09659 ], [ -0.07506, 11.08825 ], [ -0.06749, 11.08853 ], [ -0.05478, 11.09986 ], [ -0.01602, 11.10918 ], [ 0.00782, 11.09765 ], [ 0.02409, 11.05505 ], [ 0.02962, 10.99319 ], [ 0.08624, 11.00121 ], [ 0.1033, 10.99121 ], [ 0.12117, 10.99318 ], [ 0.13704, 10.97179 ], [ 0.14844, 10.98556 ], [ 0.176, 10.97184 ], [ 0.17784, 10.97482 ], [ 0.1992, 10.96616 ], [ 0.20287, 10.97582 ], [ 0.21476, 10.98484 ], [ 0.21189, 11.0037 ], [ 0.21921, 11.01359 ], [ 0.21127, 11.03015 ], [ 0.19282, 11.0324 ], [ 0.18913, 11.04019 ], [ 0.17806, 11.04634 ], [ 0.18175, 11.06849 ], [ 0.19031, 11.07229 ], [ 0.03551, 11.11131 ], [ -0.09351, 11.12929 ] ] ] } },
{ "type": "Feature", "properties": { "pcode": "TG0518", "prefecture": "Kpendjal-Ouest", "region": "Savanes", "superficie_km2": 785.6 }, "geometry": { "type": "Polygon", "coordinates": [ [ [ 0.50272, 11.00427 ], [ 0.50393, 11.01274 ], [ 0.39236, 11.03754 ], [ 0.3971, 11.02987 ], [ 0.40858, 11.02692 ], [ 0.40185, 11.02085 ], [ 0.40185, 11.00215 ], [ 0.38955, 11.00461 ], [ 0.38857, 10.98477 ], [ 0.37266, 10.97565 ], [ 0.35948, 10.96036 ], [ 0.36221, 10.954 ], [ 0.37355, 10.94695 ], [ 0.35665, 10.91689 ], [ 0.35173, 10.89331 ], [ 0.37141, 10.86584 ], [ 0.38478, 10.83312 ], [ 0.337, 10.82703 ], [ 0.3308, 10.81796 ], [ 0.32362, 10.81632 ], [ 0.32095, 10.80812 ], [ 0.33192, 10.79101 ], [ 0.33438, 10.76763 ], [ 0.34832, 10.75697 ], [ 0.34525, 10.75308 ], [ 0.32741, 10.75554 ], [ 0.33008, 10.73668 ], [ 0.32577, 10.71597 ], [ 0.33459, 10.69609 ], [ 0.35112, 10.682 ], [ 0.37344, 10.68324 ], [ 0.3767, 10.68045 ], [ 0.37856, 10.66107 ], [ 0.4143, 10.65402 ], [ 0.43507, 10.6382 ], [ 0.44081, 10.62564 ], [ 0.47135, 10.63448 ], [ 0.49011, 10.63231 ], [ 0.51119, 10.63528 ], [ 0.52205, 10.64053 ], [ 0.53849, 10.67674 ], [ 0.5143, 10.67985 ], [ 0.48247, 10.69297 ], [ 0.48135, 10.70916 ], [ 0.50802, 10.70794 ], [ 0.5118, 10.73082 ], [ 0.50938, 10.77957 ], [ 0.53058, 10.79592 ], [ 0.52967, 10.8147 ], [ 0.52271, 10.8259 ], [ 0.52846, 10.83044 ], [ 0.53724, 10.82621 ], [ 0.53633, 10.83681 ], [ 0.52755, 10.84437 ], [ 0.53058, 10.84831 ], [ 0.53421, 10.8465 ], [ 0.53815, 10.85437 ], [ 0.53648, 10.863 ], [ 0.54072, 10.86482 ], [ 0.54103, 10.87693 ], [ 0.53376, 10.88571 ], [ 0.54436, 10.90327 ], [ 0.55344, 10.90388 ], [ 0.56949, 10.91508 ], [ 0.57718, 10.90799 ], [ 0.57313, 10.94476 ], [ 0.57646, 10.95263 ], [ 0.58827, 10.96051 ], [ 0.59711, 10.97912 ], [ 0.59099, 10.97595 ], [ 0.57555, 10.97868 ], [ 0.50075, 10.93658 ], [ 0.50923, 10.95263 ], [ 0.50984, 10.97777 ], [ 0.50711, 10.98473 ], [ 0.49136, 10.98685 ], [ 0.50272, 11.00427 ] ] ] } },
{ "type": "Feature", "properties": { "pcode": "TG0519", "prefecture": "Oti-Sud", "region": "Savanes", "superficie_km2": 2392.9 }, "geometry": { "type": "Polygon", "coordinates": [ [ [ 0.79841, 10.69593 ], [ 0.78636, 10.70028 ], [ 0.77775, 10.69705 ], [ 0.77345, 10.67696 ], [ 0.76304, 10.67409 ], [ 0.76986, 10.66548 ], [ 0.76735, 10.66081 ], [ 0.75407, 10.66476 ], [ 0.74351, 10.65489 ], [ 0.70743, 10.65794 ], [ 0.69272, 10.64144 ], [ 0.68914, 10.64682 ], [ 0.68555, 10.64574 ], [ 0.68053, 10.62027 ], [ 0.66617, 10.60664 ], [ 0.66904, 10.59049 ], [ 0.67945, 10.57578 ], [ 0.67945, 10.5582 ], [ 0.6755, 10.55462 ], [ 0.64142, 10.55282 ], [ 0.6285, 10.55964 ], [ 0.61523, 10.55928 ], [ 0.59155, 10.56645 ], [ 0.58635, 10.57632 ], [ 0.57271, 10.56843 ], [ 0.56446, 10.55121 ], [ 0.56051, 10.51138 ], [ 0.56984, 10.50385 ], [ 0.56302, 10.49847 ], [ 0.53935, 10.50743 ], [ 0.53253, 10.506 ], [ 0.52894, 10.4834 ], [ 0.51459, 10.47766 ], [ 0.51289, 10.463 ], [ 0.53271, 10.45559 ], [ 0.53091, 10.4459 ], [ 0.51154, 10.42832 ], [ 0.54024, 10.39603 ], [ 0.55818, 10.3842 ], [ 0.56751, 10.34617 ], [ 0.59071, 10.33571 ], [ 0.56966, 10.31136 ], [ 0.53414, 10.28517 ], [ 0.51979, 10.25468 ], [ 0.50401, 10.23315 ], [ 0.50221, 10.21808 ], [ 0.48571, 10.21342 ], [ 0.47889, 10.20086 ], [ 0.47315, 10.19835 ], [ 0.46131, 10.20552 ], [ 0.45342, 10.20481 ], [ 0.424, 10.18543 ], [ 0.41862, 10.19189 ], [ 0.41001, 10.18974 ], [ 0.40803, 10.17664 ], [ 0.42167, 10.17341 ], [ 0.43567, 10.16122 ], [ 0.42095, 10.1544 ], [ 0.40301, 10.1526 ], [ 0.38794, 10.14077 ], [ 0.384, 10.12893 ], [ 0.37467, 10.13646 ], [ 0.35719, 10.12629 ], [ 0.3474, 10.09556 ], [ 0.35386, 10.08264 ], [ 0.38579, 10.0769 ], [ 0.41341, 10.06004 ], [ 0.40789, 10.01947 ], [ 0.42242, 9.9942 ], [ 0.41806, 9.97619 ], [ 0.42619, 9.95847 ], [ 0.44711, 9.95644 ], [ 0.45611, 9.94714 ], [ 0.46541, 9.94394 ], [ 0.48603, 9.95353 ], [ 0.49939, 9.94162 ], [ 0.50636, 9.94133 ], [ 0.51391, 9.95034 ], [ 0.51972, 9.9515 ], [ 0.52698, 9.94336 ], [ 0.51507, 9.92478 ], [ 0.51507, 9.91664 ], [ 0.52408, 9.90154 ], [ 0.58457, 9.88109 ], [ 0.58792, 9.88591 ], [ 0.60063, 9.8892 ], [ 0.62617, 9.88352 ], [ 0.63691, 9.89479 ], [ 0.64568, 9.8915 ], [ 0.65422, 9.87791 ], [ 0.67245, 9.88316 ], [ 0.6807, 9.87742 ], [ 0.68286, 9.88747 ], [ 0.67775, 9.90746 ], [ 0.65607, 9.93176 ], [ 0.66887, 9.94882 ], [ 0.66663, 9.95679 ], [ 0.67465, 9.95974 ], [ 0.67772, 9.98281 ], [ 0.64352, 9.989 ], [ 0.67295, 10.01583 ], [ 0.67845, 10.03836 ], [ 0.68697, 10.0532 ], [ 0.68669, 10.08206 ], [ 0.67223, 10.11116 ], [ 0.67571, 10.14132 ], [ 0.68371, 10.14359 ], [ 0.69799, 10.16711 ], [ 0.70474, 10.16803 ], [ 0.74026, 10.14005 ], [ 0.74277, 10.14507 ], [ 0.73308, 10.16839 ], [ 0.75425, 10.18238 ], [ 0.76789, 10.17485 ], [ 0.78116, 10.17951 ], [ 0.79408, 10.17198 ], [ 0.80376, 10.15368 ], [ 0.81417, 10.15476 ], [ 0.82248, 10.16874 ], [ 0.83925, 10.22745 ], [ 0.87699, 10.2547 ], [ 0.90166, 10.28999 ], [ 0.77434, 10.38509 ], [ 0.78349, 10.51264 ], [ 0.80143, 10.55892 ], [ 0.80861, 10.61022 ], [ 0.81205, 10.6803 ], [ 0.80491, 10.68324 ], [ 0.79841, 10.69593 ] ] ] } }
]
}
